{
"type": "FeatureCollection",
"name": "apkaimes_daugavpils_4326",
"crs": { "type": "name", "properties": { "name": "urn:ogc:def:crs:OGC:1.3:CRS84" } },
"features": [
{ "type": "Feature", "properties": { "NOSAUKUMS": "Centrs" }, "geometry": { "type": "Polygon", "coordinates": [ [ [ 26.507371, 55.8684845 ], [ 26.5081171, 55.8687769 ], [ 26.5100618, 55.8688191 ], [ 26.5135016, 55.869961599999989 ], [ 26.5137121, 55.8701318 ], [ 26.5142415, 55.8703071 ], [ 26.5143361, 55.8703046 ], [ 26.5154746, 55.870686799999987 ], [ 26.5151952, 55.8709484 ], [ 26.5150198, 55.8711438 ], [ 26.5149912, 55.8712312 ], [ 26.5150051, 55.8713173 ], [ 26.5150499, 55.8713809 ], [ 26.5150932, 55.8714239 ], [ 26.5151462, 55.871461899999986 ], [ 26.5152066, 55.8714962 ], [ 26.5152808, 55.8715308 ], [ 26.518172, 55.8725636 ], [ 26.5184836, 55.8725865 ], [ 26.5194658, 55.8729755 ], [ 26.5202016, 55.8732538 ], [ 26.5199618, 55.873484 ], [ 26.5218756, 55.8744208 ], [ 26.5225282, 55.8747824 ], [ 26.5231026, 55.8750972 ], [ 26.524137, 55.87558330000001 ], [ 26.524212, 55.8756519 ], [ 26.5244731, 55.8760354 ], [ 26.5246264, 55.8763631 ], [ 26.5247814, 55.8764812 ], [ 26.5247586, 55.8765672 ], [ 26.5246542, 55.8766505 ], [ 26.524739, 55.8768917 ], [ 26.5249766, 55.876985 ], [ 26.5254468, 55.8766625 ], [ 26.5257729, 55.8763605 ], [ 26.5264304, 55.8758874 ], [ 26.5265451, 55.8758722 ], [ 26.5304346, 55.8729989 ], [ 26.5306223, 55.8728603 ], [ 26.5332564, 55.8707778 ], [ 26.5339499, 55.8702296 ], [ 26.5356323, 55.8688572 ], [ 26.5196795, 55.8650184 ], [ 26.5194054, 55.865183199999983 ], [ 26.516945, 55.8658259 ], [ 26.5151503, 55.8663422 ], [ 26.5123636, 55.8670106 ], [ 26.5094528, 55.8677631 ], [ 26.507371, 55.8684845 ] ] ] } },
{ "type": "Feature", "properties": { "NOSAUKUMS": "Čerepova" }, "geometry": { "type": "Polygon", "coordinates": [ [ [ 26.5486046, 55.8662848 ], [ 26.5492536, 55.8661816 ], [ 26.5680039, 55.8645405 ], [ 26.5681281, 55.8644849 ], [ 26.5739369, 55.8639643 ], [ 26.5753715, 55.8643145 ], [ 26.5759017, 55.864339899999983 ], [ 26.5766601, 55.8645339 ], [ 26.5771433, 55.8647354 ], [ 26.5775695, 55.8650103 ], [ 26.5753178, 55.865543199999983 ], [ 26.5753362, 55.8656251 ], [ 26.5726583, 55.8662616 ], [ 26.5729016, 55.8665695 ], [ 26.5731944, 55.866871699999983 ], [ 26.5719956, 55.867407400000012 ], [ 26.5726516, 55.867977899999985 ], [ 26.5718496, 55.8682895 ], [ 26.5733345, 55.8698288 ], [ 26.5746399, 55.870853 ], [ 26.5745275, 55.8709415 ], [ 26.5751903, 55.871625 ], [ 26.5773111, 55.8736771 ], [ 26.5859421, 55.8716976 ], [ 26.5861733, 55.8719796 ], [ 26.5855022, 55.8726769 ], [ 26.5856217, 55.8728202 ], [ 26.5852714, 55.8732202 ], [ 26.5846623, 55.873391 ], [ 26.5848228, 55.87365 ], [ 26.5859721, 55.873391 ], [ 26.5865287, 55.874146 ], [ 26.5839747, 55.8748569 ], [ 26.5837947, 55.8748385 ], [ 26.5833526, 55.8749248 ], [ 26.5832217, 55.8749193 ], [ 26.5815943, 55.875288500000011 ], [ 26.5814634, 55.8752555 ], [ 26.5814404, 55.8750975 ], [ 26.5810181, 55.8751471 ], [ 26.5800718, 55.8746787 ], [ 26.5797869, 55.8747687 ], [ 26.5793089, 55.8748679 ], [ 26.5791354, 55.875092 ], [ 26.5792598, 55.8756412 ], [ 26.5782316, 55.8757918 ], [ 26.5773934, 55.876218 ], [ 26.5774622, 55.8767231 ], [ 26.5784936, 55.8770519 ], [ 26.5788145, 55.877233699999984 ], [ 26.58017, 55.8776139 ], [ 26.5807921, 55.8776286 ], [ 26.5813029, 55.8774964 ], [ 26.5812636, 55.8772723 ], [ 26.581853, 55.8771988 ], [ 26.5818857, 55.8775258 ], [ 26.5823834, 55.8776286 ], [ 26.5824555, 55.877716799999988 ], [ 26.5822721, 55.8780327 ], [ 26.58239, 55.8784405 ], [ 26.5820953, 55.8790539 ], [ 26.5809362, 55.8793919 ], [ 26.5801242, 55.8799466 ], [ 26.5778247, 55.880918 ], [ 26.5749418, 55.879721600000011 ], [ 26.5725566, 55.8786048 ], [ 26.5718637, 55.8782301 ], [ 26.5659102, 55.87549 ], [ 26.5656762, 55.875497 ], [ 26.5648776, 55.8751371 ], [ 26.5643707, 55.8746811 ], [ 26.5634078, 55.8743705 ], [ 26.5592854, 55.8710432 ], [ 26.5596928, 55.8708243 ], [ 26.5586638, 55.8703408 ], [ 26.5579012, 55.869903 ], [ 26.5568336, 55.8689836 ], [ 26.5547479, 55.8678671 ], [ 26.5534781, 55.8673835 ], [ 26.5523254, 55.8670511 ], [ 26.5486046, 55.8662848 ] ] ] } },
{ "type": "Feature", "properties": { "NOSAUKUMS": "Cietoksnis" }, "geometry": { "type": "Polygon", "coordinates": [ [ [ 26.467917, 55.90078350000001 ], [ 26.4684743, 55.9013476 ], [ 26.4699627, 55.9021792 ], [ 26.4720618, 55.9031314 ], [ 26.4728928, 55.9033597 ], [ 26.474201, 55.9034682 ], [ 26.4748851, 55.903707599999983 ], [ 26.4772178, 55.90321 ], [ 26.4778752, 55.9025983 ], [ 26.4836987, 55.9014495 ], [ 26.4888713, 55.9002222 ], [ 26.4908803, 55.9000781 ], [ 26.4911573, 55.8995393 ], [ 26.4919816, 55.8985196 ], [ 26.4922953, 55.898304 ], [ 26.4935401, 55.899878 ], [ 26.4973862, 55.8969732 ], [ 26.4973862, 55.8968955 ], [ 26.509956, 55.8879059 ], [ 26.5096198, 55.8877214 ], [ 26.5087806, 55.8871225 ], [ 26.5074167, 55.8860208 ], [ 26.5057345, 55.8839189 ], [ 26.5047458, 55.8828692 ], [ 26.5031713, 55.8816997 ], [ 26.5024812, 55.881279599999985 ], [ 26.4990867, 55.8796186 ], [ 26.4988101, 55.8798241 ], [ 26.4988101, 55.8800085 ], [ 26.4985258, 55.8802187 ], [ 26.496911, 55.881081099999989 ], [ 26.4963938, 55.8814691 ], [ 26.4951783, 55.8818663 ], [ 26.4913351, 55.8833799 ], [ 26.4896146, 55.8838022 ], [ 26.4868393, 55.8842296 ], [ 26.484901, 55.8848038 ], [ 26.4838968, 55.8846802 ], [ 26.4833706, 55.884726 ], [ 26.4798856, 55.8849667 ], [ 26.4781512, 55.8853016 ], [ 26.4766551, 55.8857884 ], [ 26.4758458, 55.8861819 ], [ 26.4750072, 55.8867602 ], [ 26.474242, 55.887494899999986 ], [ 26.4734467, 55.8886112 ], [ 26.4736737, 55.8886767 ], [ 26.4737771, 55.8887787 ], [ 26.4736537, 55.8892653 ], [ 26.4737471, 55.8894777 ], [ 26.4740258, 55.8895984 ], [ 26.4728127, 55.8908925 ], [ 26.4723922, 55.8916635 ], [ 26.4715412, 55.8959169 ], [ 26.471104, 55.8964558 ], [ 26.4707036, 55.8967926 ], [ 26.4666155, 55.8994458 ], [ 26.4674298, 55.900153 ], [ 26.467917, 55.90078350000001 ] ] ] } },
{ "type": "Feature", "properties": { "NOSAUKUMS": "Dzelzceļnieks" }, "geometry": { "type": "Polygon", "coordinates": [ [ [ 26.5096198, 55.8877214 ], [ 26.5124781, 55.88569780000001 ], [ 26.5174391, 55.8820606 ], [ 26.5176297, 55.8821367 ], [ 26.5185953, 55.8814337 ], [ 26.5184036, 55.88134740000001 ], [ 26.5192934, 55.8806481 ], [ 26.5195293, 55.880756 ], [ 26.5201145, 55.8803346 ], [ 26.520049, 55.8802742 ], [ 26.5219918, 55.8789581 ], [ 26.5227308, 55.8783989 ], [ 26.5229529, 55.8784876 ], [ 26.5249766, 55.876985 ], [ 26.5254468, 55.8766625 ], [ 26.5257729, 55.8763605 ], [ 26.5264304, 55.8758874 ], [ 26.5265451, 55.8758722 ], [ 26.5304346, 55.8729989 ], [ 26.5306223, 55.8728603 ], [ 26.5332564, 55.8707778 ], [ 26.5339499, 55.8702296 ], [ 26.5356323, 55.8688572 ], [ 26.536082, 55.8689705 ], [ 26.5337877, 55.871397 ], [ 26.53354, 55.8714359 ], [ 26.5330621, 55.8719338 ], [ 26.5331995, 55.8719916 ], [ 26.5327703, 55.8725127 ], [ 26.5327706, 55.8727728 ], [ 26.532772, 55.8739247 ], [ 26.5327085, 55.8742647 ], [ 26.5328527, 55.8746576 ], [ 26.5327703, 55.8752355 ], [ 26.532693, 55.8753 ], [ 26.5328012, 55.8768035 ], [ 26.5332269, 55.87804 ], [ 26.5333643, 55.8787777 ], [ 26.5335394, 55.8787854 ], [ 26.5337128, 55.879392099999976 ], [ 26.5338399, 55.879568399999989 ], [ 26.5339034, 55.880102799999989 ], [ 26.533869, 55.88075 ], [ 26.533972, 55.880854 ], [ 26.5338416, 55.882127 ], [ 26.5337368, 55.8826162 ], [ 26.5336888, 55.8832166 ], [ 26.5334192, 55.884569 ], [ 26.5312767, 55.8881912 ], [ 26.5310363, 55.8888613 ], [ 26.5312629, 55.8889037 ], [ 26.5310088, 55.889229099999987 ], [ 26.530432, 55.891274 ], [ 26.5303015, 55.89130870000001 ], [ 26.5301593, 55.8918471 ], [ 26.5300938, 55.8928577 ], [ 26.5302122, 55.893366 ], [ 26.5308509, 55.8933775 ], [ 26.5309573, 55.8937982 ], [ 26.5312655, 55.8944422 ], [ 26.5316715, 55.8948821 ], [ 26.5323342, 55.8959892 ], [ 26.5326625, 55.8963576 ], [ 26.5327087, 55.89644 ], [ 26.532141, 55.8966241 ], [ 26.5323428, 55.8970353 ], [ 26.5308335, 55.8975188 ], [ 26.5290959, 55.8961552 ], [ 26.528063, 55.8953926 ], [ 26.5264474, 55.8941335 ], [ 26.525532, 55.8934699 ], [ 26.5248734, 55.8931242 ], [ 26.5225916, 55.892373 ], [ 26.5228608, 55.8916199 ], [ 26.5225343, 55.8914341 ], [ 26.5171722, 55.8902732 ], [ 26.5153339, 55.889816199999977 ], [ 26.5153886, 55.8893911 ], [ 26.5149915, 55.8893773 ], [ 26.5136913, 55.889229699999987 ], [ 26.512991, 55.8890822 ], [ 26.5121347, 55.8888345 ], [ 26.5112761, 55.8885031 ], [ 26.5103707, 55.888101599999985 ], [ 26.509956, 55.8879059 ], [ 26.5096198, 55.8877214 ] ] ] } },
{ "type": "Feature", "properties": { "NOSAUKUMS": "Dzintari" }, "geometry": { "type": "Polygon", "coordinates": [ [ [ 26.4563799, 55.903558099999984 ], [ 26.4615301, 55.9008335 ], [ 26.4639533, 55.8993831 ], [ 26.4659806, 55.8977604 ], [ 26.4667246, 55.8970716 ], [ 26.4691001, 55.8941972 ], [ 26.4708612, 55.8917973 ], [ 26.4714687, 55.8909782 ], [ 26.4718509, 55.8903217 ], [ 26.4734467, 55.8886112 ], [ 26.4736737, 55.8886767 ], [ 26.4737771, 55.8887787 ], [ 26.4736537, 55.8892653 ], [ 26.4737471, 55.8894777 ], [ 26.4740258, 55.8895984 ], [ 26.4728127, 55.8908925 ], [ 26.4723922, 55.8916635 ], [ 26.4715412, 55.8959169 ], [ 26.471104, 55.8964558 ], [ 26.4707036, 55.8967926 ], [ 26.4666155, 55.8994458 ], [ 26.4674298, 55.900153 ], [ 26.467917, 55.90078350000001 ], [ 26.467554, 55.9009598 ], [ 26.467124, 55.901478299999987 ], [ 26.4665233, 55.9018686 ], [ 26.4667315, 55.9020447 ], [ 26.4667076, 55.902176699999984 ], [ 26.4660693, 55.9024426 ], [ 26.466042, 55.9027449 ], [ 26.4657144, 55.902863600000011 ], [ 26.464711, 55.9029764 ], [ 26.4628782, 55.9030434 ], [ 26.4623117, 55.903097 ], [ 26.461926, 55.9030855 ], [ 26.4618065, 55.902723900000012 ], [ 26.4599772, 55.9027966 ], [ 26.4590693, 55.9033323 ], [ 26.4582195, 55.903003199999986 ], [ 26.4568577, 55.9037819 ], [ 26.4563799, 55.903558099999984 ] ] ] } },
{ "type": "Feature", "properties": { "NOSAUKUMS": "Esplanāde" }, "geometry": { "type": "Polygon", "coordinates": [ [ [ 26.4990867, 55.8796186 ], [ 26.5024812, 55.881279599999985 ], [ 26.5031713, 55.8816997 ], [ 26.5047458, 55.8828692 ], [ 26.5057345, 55.8839189 ], [ 26.5074167, 55.8860208 ], [ 26.5087806, 55.8871225 ], [ 26.5096198, 55.8877214 ], [ 26.5124781, 55.88569780000001 ], [ 26.5174391, 55.8820606 ], [ 26.5176297, 55.8821367 ], [ 26.5185953, 55.8814337 ], [ 26.5184036, 55.88134740000001 ], [ 26.5192934, 55.8806481 ], [ 26.5195293, 55.880756 ], [ 26.5201145, 55.8803346 ], [ 26.520049, 55.8802742 ], [ 26.5219918, 55.8789581 ], [ 26.5227308, 55.8783989 ], [ 26.5229529, 55.8784876 ], [ 26.5249766, 55.876985 ], [ 26.524739, 55.8768917 ], [ 26.5246542, 55.8766505 ], [ 26.5247586, 55.8765672 ], [ 26.5247814, 55.8764812 ], [ 26.5246264, 55.8763631 ], [ 26.5244731, 55.8760354 ], [ 26.524212, 55.8756519 ], [ 26.524137, 55.87558330000001 ], [ 26.5231026, 55.8750972 ], [ 26.5225282, 55.8747824 ], [ 26.5218756, 55.8744208 ], [ 26.5199618, 55.873484 ], [ 26.5202016, 55.8732538 ], [ 26.5194658, 55.8729755 ], [ 26.5184836, 55.8725865 ], [ 26.518172, 55.8725636 ], [ 26.5152808, 55.8715308 ], [ 26.5152066, 55.8714962 ], [ 26.5151462, 55.871461899999986 ], [ 26.5150932, 55.8714239 ], [ 26.5150499, 55.8713809 ], [ 26.5150051, 55.8713173 ], [ 26.5149912, 55.8712312 ], [ 26.5150198, 55.8711438 ], [ 26.5151952, 55.8709484 ], [ 26.5154746, 55.870686799999987 ], [ 26.5143361, 55.8703046 ], [ 26.5142415, 55.8703071 ], [ 26.5137121, 55.8701318 ], [ 26.5135016, 55.869961599999989 ], [ 26.5100618, 55.8688191 ], [ 26.5081171, 55.8687769 ], [ 26.507371, 55.8684845 ], [ 26.5063545, 55.8688287 ], [ 26.5053258, 55.8693638 ], [ 26.5045777, 55.8700041 ], [ 26.5037554, 55.8710221 ], [ 26.5034748, 55.8714358 ], [ 26.5030702, 55.8724281 ], [ 26.502907, 55.8732446 ], [ 26.5025807, 55.8743796 ], [ 26.5019085, 55.87602720000001 ], [ 26.5016703, 55.8765974 ], [ 26.5017437, 55.8768253 ], [ 26.5014712, 55.8773104 ], [ 26.5013595, 55.8777163 ], [ 26.5009817, 55.8783396 ], [ 26.4993828, 55.8794685 ], [ 26.4990867, 55.8796186 ] ] ] } },
{ "type": "Feature", "properties": { "NOSAUKUMS": "Ezermala" }, "geometry": { "type": "Polygon", "coordinates": [ [ [ 26.4935401, 55.899878 ], [ 26.493904, 55.900084399999976 ], [ 26.4940655, 55.9001988 ], [ 26.4947981, 55.9010028 ], [ 26.4976077, 55.9019888 ], [ 26.4978557, 55.9018699 ], [ 26.4981396, 55.9016376 ], [ 26.4994122, 55.9012095 ], [ 26.499931, 55.9009845 ], [ 26.5007794, 55.9004009 ], [ 26.5018497, 55.9005235 ], [ 26.5022152, 55.9004887 ], [ 26.5028483, 55.9002655 ], [ 26.5029984, 55.9001283 ], [ 26.5028972, 55.899936199999985 ], [ 26.5023294, 55.8994844 ], [ 26.502101, 55.8989739 ], [ 26.5019313, 55.8982659 ], [ 26.5020651, 55.897836 ], [ 26.5027634, 55.897159 ], [ 26.5039218, 55.8968608 ], [ 26.5042286, 55.896859 ], [ 26.5052336, 55.8970365 ], [ 26.5061864, 55.8970163 ], [ 26.5068391, 55.8966797 ], [ 26.5068244, 55.8965287 ], [ 26.5067053, 55.8964107 ], [ 26.5067999, 55.8962479 ], [ 26.5069419, 55.8962269 ], [ 26.5070903, 55.8962333 ], [ 26.5073008, 55.8964071 ], [ 26.5073954, 55.8965525 ], [ 26.5072429, 55.897058 ], [ 26.5073987, 55.8977161 ], [ 26.5077952, 55.8983812 ], [ 26.5080856, 55.8986126 ], [ 26.5084005, 55.898736099999986 ], [ 26.5085898, 55.8987187 ], [ 26.5086762, 55.8985403 ], [ 26.5092652, 55.8979096 ], [ 26.5098077, 55.8969157 ], [ 26.5098102, 55.896494 ], [ 26.5095654, 55.8962433 ], [ 26.5095214, 55.8960229 ], [ 26.5097416, 55.8958701 ], [ 26.5104971, 55.8958417 ], [ 26.5107516, 55.8958783 ], [ 26.510993, 55.8960485 ], [ 26.5111505, 55.8961482 ], [ 26.5112435, 55.8960604 ], [ 26.5113748, 55.89587740000001 ], [ 26.5115437, 55.895833 ], [ 26.5117387, 55.895806 ], [ 26.5124484, 55.8959753 ], [ 26.5128694, 55.8959844 ], [ 26.5130089, 55.8959286 ], [ 26.5130513, 55.8958042 ], [ 26.5127633, 55.8956386 ], [ 26.5104971, 55.8950394 ], [ 26.5101022, 55.8939883 ], [ 26.5102784, 55.89384 ], [ 26.5104024, 55.8935692 ], [ 26.5104253, 55.8931923 ], [ 26.5105982, 55.8930789 ], [ 26.5108299, 55.893077 ], [ 26.5112867, 55.8932856 ], [ 26.5123473, 55.8935766 ], [ 26.5130651, 55.8938711 ], [ 26.513442, 55.8945298 ], [ 26.5134535, 55.8951867 ], [ 26.5135807, 55.8956514 ], [ 26.5139103, 55.8958966 ], [ 26.5145009, 55.8960009 ], [ 26.5150524, 55.8960046 ], [ 26.5155892, 55.896140900000013 ], [ 26.5169026, 55.8961985 ], [ 26.5175993, 55.896118 ], [ 26.5179892, 55.8959881 ], [ 26.5183384, 55.895795099999987 ], [ 26.5185668, 55.895731 ], [ 26.5188703, 55.8957246 ], [ 26.5190628, 55.8957585 ], [ 26.5191085, 55.8958079 ], [ 26.5201054, 55.8960905 ], [ 26.5202228, 55.8963952 ], [ 26.5203941, 55.8965452 ], [ 26.5205345, 55.8965388 ], [ 26.5212426, 55.8951707 ], [ 26.5218038, 55.8939059 ], [ 26.5223227, 55.892438399999989 ], [ 26.5225916, 55.892373 ], [ 26.5228608, 55.8916199 ], [ 26.5225343, 55.8914341 ], [ 26.5171722, 55.8902732 ], [ 26.5153339, 55.889816199999977 ], [ 26.5153886, 55.8893911 ], [ 26.5149915, 55.8893773 ], [ 26.5136913, 55.889229699999987 ], [ 26.512991, 55.8890822 ], [ 26.5121347, 55.8888345 ], [ 26.5112761, 55.8885031 ], [ 26.5103707, 55.888101599999985 ], [ 26.509956, 55.8879059 ], [ 26.4973862, 55.8968955 ], [ 26.4973862, 55.8969732 ], [ 26.4935401, 55.899878 ] ] ] } },
{ "type": "Feature", "properties": { "NOSAUKUMS": "Gajoks" }, "geometry": { "type": "Polygon", "coordinates": [ [ [ 26.5196795, 55.8650184 ], [ 26.5356323, 55.8688572 ], [ 26.5362612, 55.8682512 ], [ 26.5382758, 55.867489 ], [ 26.5403898, 55.8668202 ], [ 26.541727, 55.8665714 ], [ 26.5441673, 55.8663167 ], [ 26.5486046, 55.8662848 ], [ 26.5492536, 55.8661816 ], [ 26.5680039, 55.8645405 ], [ 26.5681281, 55.8644849 ], [ 26.5739369, 55.8639643 ], [ 26.5735735, 55.8632001 ], [ 26.5734217, 55.8630522 ], [ 26.5734038, 55.8627569 ], [ 26.5716678, 55.8627606 ], [ 26.5706562, 55.8626287 ], [ 26.5685744, 55.8625775 ], [ 26.5671516, 55.8629474 ], [ 26.5653569, 55.862658 ], [ 26.5645411, 55.8622698 ], [ 26.5614868, 55.8619512 ], [ 26.5579235, 55.8618853 ], [ 26.5570751, 55.8617827 ], [ 26.5561222, 55.8618633 ], [ 26.5525458, 55.8615044 ], [ 26.5471714, 55.861260799999975 ], [ 26.5467733, 55.8613908 ], [ 26.543843, 55.8613469 ], [ 26.5378536, 55.8614792 ], [ 26.5373429, 55.8616206 ], [ 26.5366902, 55.8615868 ], [ 26.5359038, 55.861729599999983 ], [ 26.5349086, 55.861694399999983 ], [ 26.5292536, 55.8622771 ], [ 26.5270281, 55.862603099999987 ], [ 26.5265745, 55.862764199999987 ], [ 26.5263159, 55.8626777 ], [ 26.5260638, 55.862767 ], [ 26.5241859, 55.8631122 ], [ 26.52291, 55.8637604 ], [ 26.5217451, 55.8643281 ], [ 26.5212752, 55.8643299 ], [ 26.5203648, 55.8648188 ], [ 26.5196795, 55.8650184 ] ] ] } },
{ "type": "Feature", "properties": { "NOSAUKUMS": "Grīva" }, "geometry": { "type": "Polygon", "coordinates": [ [ [ 26.4816517, 55.8826089 ], [ 26.481653, 55.8824425 ], [ 26.4814069, 55.8823528 ], [ 26.4813406, 55.8822403 ], [ 26.481379, 55.8820687 ], [ 26.4815092, 55.8819417 ], [ 26.4816387, 55.8818555 ], [ 26.4816347, 55.8818161 ], [ 26.4816112, 55.8817455 ], [ 26.4815997, 55.8817108 ], [ 26.481586, 55.8816683 ], [ 26.4817058, 55.8816389 ], [ 26.4821023, 55.8815418 ], [ 26.4824216, 55.8814268 ], [ 26.482798, 55.8812292 ], [ 26.483887, 55.8805733 ], [ 26.4841205, 55.8804332 ], [ 26.4870018, 55.878591899999989 ], [ 26.4882155, 55.8778245 ], [ 26.4888391, 55.8775218 ], [ 26.4891081, 55.8775569 ], [ 26.4906532, 55.8772517 ], [ 26.4910721, 55.8772321 ], [ 26.4913594, 55.8772373 ], [ 26.4910971, 55.8766339 ], [ 26.4912239, 55.8760573 ], [ 26.4923152, 55.8751568 ], [ 26.4925955, 55.874561499999984 ], [ 26.4926956, 55.874048499999986 ], [ 26.4930894, 55.8733445 ], [ 26.492749, 55.873022499999983 ], [ 26.4926122, 55.8728615 ], [ 26.4924487, 55.872636799999988 ], [ 26.4923152, 55.8723953 ], [ 26.4922017, 55.8721126 ], [ 26.4920582, 55.8715883 ], [ 26.492155, 55.8657949 ], [ 26.4922017, 55.8655589 ], [ 26.4923285, 55.8653642 ], [ 26.4924553, 55.8652181 ], [ 26.492709, 55.8650852 ], [ 26.4933797, 55.8648698 ], [ 26.4938753, 55.8647902 ], [ 26.4941623, 55.8647659 ], [ 26.4942808, 55.860216 ], [ 26.4958459, 55.8603864 ], [ 26.4968704, 55.8604257 ], [ 26.4974778, 55.860444499999986 ], [ 26.4981085, 55.8604051 ], [ 26.4988244, 55.860310599999984 ], [ 26.4993383, 55.8601869 ], [ 26.4996704, 55.8599088 ], [ 26.5002126, 55.8597646 ], [ 26.5007099, 55.859495799999983 ], [ 26.5009368, 55.859273 ], [ 26.5016493, 55.8591259 ], [ 26.5036516, 55.8591147 ], [ 26.503962, 55.8589986 ], [ 26.4995302, 55.8533382 ], [ 26.4991898, 55.8530403 ], [ 26.498776, 55.8525196 ], [ 26.5063114, 55.85313020000001 ], [ 26.5069321, 55.853089 ], [ 26.5072191, 55.8528305 ], [ 26.5074927, 55.852658199999986 ], [ 26.508287, 55.8523734 ], [ 26.508554, 55.8524596 ], [ 26.5084538, 55.8526881 ], [ 26.5084872, 55.852868 ], [ 26.5086674, 55.8529392 ], [ 26.5087876, 55.8527818 ], [ 26.5087208, 55.8525832 ], [ 26.508554, 55.851774 ], [ 26.5085673, 55.85120830000001 ], [ 26.5086608, 55.8510322 ], [ 26.5089189, 55.8509407 ], [ 26.5089957, 55.8509913 ], [ 26.5090166, 55.8510082 ], [ 26.5091385, 55.8510506 ], [ 26.5097103, 55.8511075 ], [ 26.509828, 55.8511178 ], [ 26.5100234, 55.8510876 ], [ 26.5102002, 55.8510415 ], [ 26.5102197, 55.8510371 ], [ 26.5104232, 55.850991199999989 ], [ 26.5105499, 55.8509755 ], [ 26.5106552, 55.8509897 ], [ 26.5108411, 55.851084 ], [ 26.5110122, 55.851218 ], [ 26.5110607, 55.8512497 ], [ 26.5111192, 55.851258299999984 ], [ 26.5112008, 55.8512632 ], [ 26.5112701, 55.851258499999986 ], [ 26.5113929, 55.851184 ], [ 26.5114971, 55.8510903 ], [ 26.5115744, 55.8510298 ], [ 26.5117024, 55.8509454 ], [ 26.5120283, 55.8508186 ], [ 26.5123357, 55.8507272 ], [ 26.5125581, 55.850666899999986 ], [ 26.5128036, 55.8506063 ], [ 26.5129236, 55.8505776 ], [ 26.5130661, 55.8505387 ], [ 26.5131337, 55.8505079 ], [ 26.5131776, 55.8504677 ], [ 26.5132031, 55.85041480000001 ], [ 26.513189, 55.8503758 ], [ 26.5131116, 55.8503446 ], [ 26.5130535, 55.8503425 ], [ 26.5129208, 55.8503551 ], [ 26.5125373, 55.8504349 ], [ 26.5124523, 55.8504661 ], [ 26.5122866, 55.8505055 ], [ 26.5122007, 55.8505236 ], [ 26.5120964, 55.8505258 ], [ 26.512013, 55.8504915 ], [ 26.5119066, 55.8504609 ], [ 26.5118642, 55.8504323 ], [ 26.5118258, 55.850377399999985 ], [ 26.5118284, 55.8503283 ], [ 26.511833, 55.850308499999983 ], [ 26.5118952, 55.850284299999984 ], [ 26.5121658, 55.8502526 ], [ 26.5122813, 55.8502437 ], [ 26.5123953, 55.8502119 ], [ 26.5124575, 55.8501877 ], [ 26.5124616, 55.85016250000001 ], [ 26.5124344, 55.8501009 ], [ 26.5123341, 55.8499851 ], [ 26.5122782, 55.8499273 ], [ 26.5122628, 55.8498686 ], [ 26.5122708, 55.8498128 ], [ 26.5123309, 55.8497559 ], [ 26.5124621, 55.8497205 ], [ 26.5125786, 55.849728 ], [ 26.5127725, 55.8497666 ], [ 26.5128897, 55.8497838 ], [ 26.5129557, 55.8498162 ], [ 26.5130248, 55.8498161 ], [ 26.5132084, 55.8498078 ], [ 26.5133195, 55.8497619 ], [ 26.5133898, 55.849724 ], [ 26.5134772, 55.8496732 ], [ 26.5135515, 55.849533 ], [ 26.5136014, 55.8494264 ], [ 26.5136297, 55.8493235 ], [ 26.5136335, 55.8492209 ], [ 26.513563, 55.8491359 ], [ 26.513476, 55.8490294 ], [ 26.5132281, 55.848922 ], [ 26.5130774, 55.8488334 ], [ 26.5130444, 55.8487145 ], [ 26.5130025, 55.8486325 ], [ 26.5129594, 55.8485554 ], [ 26.5129289, 55.8484561 ], [ 26.5129517, 55.848332799999987 ], [ 26.5129691, 55.8482239 ], [ 26.51301, 55.8481213 ], [ 26.5131976, 55.848097300000013 ], [ 26.5132937, 55.8481242 ], [ 26.5133587, 55.848203399999989 ], [ 26.5134467, 55.8482632 ], [ 26.5135295, 55.848287699999979 ], [ 26.5136422, 55.8483206 ], [ 26.5137256, 55.848317799999982 ], [ 26.5138045, 55.8482886 ], [ 26.5138527, 55.848253 ], [ 26.5139107, 55.8481507 ], [ 26.5140096, 55.8480014 ], [ 26.5141092, 55.8478798 ], [ 26.5142363, 55.847753 ], [ 26.5145009, 55.8476858 ], [ 26.5146797, 55.8476722 ], [ 26.5149619, 55.8477031 ], [ 26.5151323, 55.8477556 ], [ 26.5153048, 55.8477786 ], [ 26.5153897, 55.8477937 ], [ 26.5154799, 55.847797 ], [ 26.5155944, 55.8477788 ], [ 26.5156386, 55.8477585 ], [ 26.5156359, 55.8477217 ], [ 26.5156064, 55.847683699999983 ], [ 26.5155198, 55.847634499999984 ], [ 26.5153766, 55.8475813 ], [ 26.5150163, 55.8474949 ], [ 26.5148769, 55.8474565 ], [ 26.5147424, 55.8473956 ], [ 26.5146701, 55.8473421 ], [ 26.5146484, 55.8472859 ], [ 26.5146397, 55.8472412 ], [ 26.514681, 55.847189 ], [ 26.514823, 55.8471612 ], [ 26.5149669, 55.8471493 ], [ 26.5151347, 55.8471098 ], [ 26.5152536, 55.847063499999983 ], [ 26.5153264, 55.8469886 ], [ 26.5153479, 55.8469223 ], [ 26.5153119, 55.8468449 ], [ 26.5152165, 55.8467793 ], [ 26.5150872, 55.8467452 ], [ 26.5148775, 55.8467498 ], [ 26.5147219, 55.8467945 ], [ 26.5144227, 55.846936899999989 ], [ 26.5142863, 55.8470146 ], [ 26.5141373, 55.8470565 ], [ 26.514042, 55.8470778 ], [ 26.5139341, 55.847085399999983 ], [ 26.5138514, 55.847062200000011 ], [ 26.5138017, 55.8470293 ], [ 26.5134704, 55.8468768 ], [ 26.5132601, 55.846793 ], [ 26.5130827, 55.8467523 ], [ 26.5130171, 55.8467166 ], [ 26.5129664, 55.846666 ], [ 26.5129489, 55.8465834 ], [ 26.5130013, 55.8465177 ], [ 26.5132689, 55.8464684 ], [ 26.5135326, 55.8464514 ], [ 26.513797, 55.8464296 ], [ 26.5140821, 55.8464763 ], [ 26.5142268, 55.8464833 ], [ 26.5143641, 55.8464184 ], [ 26.514409, 55.846371499999982 ], [ 26.5144432, 55.8463012 ], [ 26.5145809, 55.846215 ], [ 26.5147962, 55.8461272 ], [ 26.5148736, 55.8460847 ], [ 26.5149152, 55.846033 ], [ 26.5150788, 55.8460284 ], [ 26.5162164, 55.8461008 ], [ 26.5172916, 55.846169399999987 ], [ 26.5206073, 55.8465492 ], [ 26.5207479, 55.8460593 ], [ 26.5209547, 55.8453382 ], [ 26.5233807, 55.8457557 ], [ 26.5236656, 55.8458052 ], [ 26.5249538, 55.8460292 ], [ 26.5246531, 55.8473051 ], [ 26.5250569, 55.8482755 ], [ 26.5253097, 55.849704499999987 ], [ 26.5282039, 55.8495551 ], [ 26.5287445, 55.8497555 ], [ 26.529412, 55.8497518 ], [ 26.529412, 55.8501808 ], [ 26.5294854, 55.8507466 ], [ 26.5294754, 55.8521422 ], [ 26.5296896, 55.852818899999988 ], [ 26.5307857, 55.8524202 ], [ 26.5347736, 55.8523682 ], [ 26.5397783, 55.8521254 ], [ 26.5419299, 55.8519249 ], [ 26.5439856, 55.8518312 ], [ 26.5463516, 55.8517253 ], [ 26.5483025, 55.8517978 ], [ 26.5484441, 55.8524569 ], [ 26.5484782, 55.853077 ], [ 26.5485478, 55.8532211 ], [ 26.548418, 55.8534231 ], [ 26.5469634, 55.854222599999986 ], [ 26.5430697, 55.8563692 ], [ 26.5421421, 55.8566249 ], [ 26.5429457, 55.857123799999989 ], [ 26.5429033, 55.8583673 ], [ 26.5399481, 55.858382499999983 ], [ 26.5396762, 55.858424899999989 ], [ 26.5385585, 55.8585012 ], [ 26.5375313, 55.8586481 ], [ 26.5371134, 55.8586595 ], [ 26.5370832, 55.8587555 ], [ 26.5375817, 55.8588036 ], [ 26.5377579, 55.8588558 ], [ 26.5375238, 55.859173799999986 ], [ 26.5374306, 55.8592253 ], [ 26.5362776, 55.859360299999985 ], [ 26.5341226, 55.85938 ], [ 26.5338507, 55.8593066 ], [ 26.5332515, 55.8593631 ], [ 26.5331659, 55.8593122 ], [ 26.5335385, 55.859162499999989 ], [ 26.5338758, 55.859089 ], [ 26.5335435, 55.859012699999987 ], [ 26.5326976, 55.8590607 ], [ 26.5297773, 55.859445 ], [ 26.5299586, 55.8595778 ], [ 26.5296514, 55.8597587 ], [ 26.5296011, 55.8598265 ], [ 26.5289717, 55.8600808 ], [ 26.5285941, 55.8600328 ], [ 26.5251299, 55.8607025 ], [ 26.5244754, 55.8606742 ], [ 26.5221844, 55.8612309 ], [ 26.5213788, 55.8615078 ], [ 26.5195813, 55.8620616 ], [ 26.5179399, 55.8627002 ], [ 26.5132925, 55.8643334 ], [ 26.509683, 55.8648739 ], [ 26.5088415, 55.864952099999989 ], [ 26.5068325, 55.8653138 ], [ 26.5049645, 55.8657545 ], [ 26.5037913, 55.8662462 ], [ 26.5013342, 55.8677068 ], [ 26.5008055, 55.8681673 ], [ 26.4994536, 55.8699401 ], [ 26.4991288, 55.870057299999985 ], [ 26.4990709, 55.8705022 ], [ 26.4986253, 55.8714868 ], [ 26.4985448, 55.8717805 ], [ 26.4980916, 55.8726167 ], [ 26.4979003, 55.8738497 ], [ 26.498001, 55.8754962 ], [ 26.4973917, 55.8758849 ], [ 26.4972759, 55.8762662 ], [ 26.4972558, 55.8770458 ], [ 26.4968782, 55.877489299999986 ], [ 26.4966264, 55.8779129 ], [ 26.4955288, 55.8788224 ], [ 26.4947685, 55.8792743 ], [ 26.4946124, 55.8796076 ], [ 26.4938722, 55.8799013 ], [ 26.4933662, 55.8801809 ], [ 26.489819, 55.8813982 ], [ 26.4878302, 55.8818444 ], [ 26.4854133, 55.882285 ], [ 26.4833389, 55.8824149 ], [ 26.4816517, 55.8826089 ] ] ] } },
{ "type": "Feature", "properties": { "NOSAUKUMS": "Jaunā Forštate" }, "geometry": { "type": "Polygon", "coordinates": [ [ [ 26.5220732, 55.906757399999982 ], [ 26.5226037, 55.9067144 ], [ 26.5233438, 55.90666920000001 ], [ 26.5261606, 55.9064809 ], [ 26.5276511, 55.9063604 ], [ 26.5308845, 55.905989 ], [ 26.5337813, 55.905653599999987 ], [ 26.5387956, 55.90506220000001 ], [ 26.5366617, 55.9028687 ], [ 26.5352919, 55.900999699999986 ], [ 26.5308335, 55.8975188 ], [ 26.5290959, 55.8961552 ], [ 26.5267803, 55.8978885 ], [ 26.5266302, 55.8981611 ], [ 26.526353, 55.8982523 ], [ 26.5254591, 55.8988588 ], [ 26.524314, 55.8992968 ], [ 26.5236302, 55.899405 ], [ 26.5233298, 55.899187499999982 ], [ 26.5230098, 55.8990663 ], [ 26.5217691, 55.9000385 ], [ 26.5211558, 55.9005156 ], [ 26.5209306, 55.9005758 ], [ 26.5203013, 55.9010448 ], [ 26.5202637, 55.901261299999987 ], [ 26.5211237, 55.9059357 ], [ 26.5217762, 55.90603 ], [ 26.5220497, 55.9064699 ], [ 26.5220732, 55.906757399999982 ] ] ] } },
{ "type": "Feature", "properties": { "NOSAUKUMS": "Jaunbūve" }, "geometry": { "type": "Polygon", "coordinates": [ [ [ 26.5326625, 55.8963576 ], [ 26.533331, 55.8960779 ], [ 26.5334936, 55.895962099999984 ], [ 26.5353044, 55.8951608 ], [ 26.5358611, 55.8949731 ], [ 26.5388259, 55.8936088 ], [ 26.5399017, 55.8936877 ], [ 26.5453668, 55.89419620000001 ], [ 26.5455511, 55.8930472 ], [ 26.5457605, 55.892497 ], [ 26.5461597, 55.892512899999986 ], [ 26.5462733, 55.8919667 ], [ 26.5460515, 55.8919478 ], [ 26.546048, 55.8911318 ], [ 26.5456469, 55.8910264 ], [ 26.5457428, 55.890897 ], [ 26.544467, 55.8901235 ], [ 26.5441511, 55.8902881 ], [ 26.5428966, 55.8901627 ], [ 26.5428895, 55.8897706 ], [ 26.5436419, 55.8893507 ], [ 26.5435079, 55.8892751 ], [ 26.5442931, 55.888858199999987 ], [ 26.5449283, 55.8892194 ], [ 26.5466069, 55.888322799999983 ], [ 26.5467207, 55.8883723 ], [ 26.5473577, 55.888751 ], [ 26.5465792, 55.8892082 ], [ 26.5466459, 55.889359699999986 ], [ 26.5470913, 55.8896234 ], [ 26.5478188, 55.8896423 ], [ 26.5485055, 55.8897736 ], [ 26.5499615, 55.888938799999984 ], [ 26.5494504, 55.8887212 ], [ 26.5493857, 55.8886004 ], [ 26.5496293, 55.8884645 ], [ 26.5490403, 55.8881048 ], [ 26.5494533, 55.8878674 ], [ 26.5498115, 55.8880818 ], [ 26.5500253, 55.8879591 ], [ 26.550512, 55.8876826 ], [ 26.55054, 55.8876991 ], [ 26.5519952, 55.8868833 ], [ 26.5522125, 55.8867612 ], [ 26.5519029, 55.8865779 ], [ 26.5522342, 55.8863966 ], [ 26.5528398, 55.8860653 ], [ 26.5531908, 55.8862727 ], [ 26.5548554, 55.8853641 ], [ 26.5551869, 55.8854158 ], [ 26.5552885, 55.8857623 ], [ 26.5552307, 55.8857956 ], [ 26.5553401, 55.8859017 ], [ 26.5556601, 55.8861182 ], [ 26.5557412, 55.8864333 ], [ 26.557509, 55.8867427 ], [ 26.5579844, 55.8864902 ], [ 26.5584159, 55.8865323 ], [ 26.5587412, 55.8862692 ], [ 26.5591915, 55.8856307 ], [ 26.5590539, 55.8851817 ], [ 26.559276, 55.88488 ], [ 26.5592228, 55.8847186 ], [ 26.5601923, 55.8842748 ], [ 26.5605144, 55.8842836 ], [ 26.5604707, 55.884024 ], [ 26.5608274, 55.883607 ], [ 26.5615738, 55.883335700000011 ], [ 26.562444, 55.8831908 ], [ 26.563007, 55.8830216 ], [ 26.5642454, 55.883407499999983 ], [ 26.5643862, 55.8835697 ], [ 26.5638795, 55.8849826 ], [ 26.5634245, 55.8849081 ], [ 26.5632947, 55.8850484 ], [ 26.5638107, 55.8853089 ], [ 26.5633291, 55.8858008 ], [ 26.5636074, 55.886427 ], [ 26.563792, 55.8866138 ], [ 26.5643674, 55.8869023 ], [ 26.565007, 55.8870672 ], [ 26.5653666, 55.8869164 ], [ 26.5657435, 55.8869216 ], [ 26.5659264, 55.886846199999987 ], [ 26.5663392, 55.8869646 ], [ 26.5665488, 55.886813799999985 ], [ 26.5669022, 55.8869251 ], [ 26.5679285, 55.886861 ], [ 26.568481, 55.8870939 ], [ 26.5691335, 55.8868445 ], [ 26.5698595, 55.886134 ], [ 26.5700251, 55.886064699999984 ], [ 26.5703613, 55.8861704 ], [ 26.5708356, 55.8856252 ], [ 26.5706699, 55.8855318 ], [ 26.5706293, 55.8854198 ], [ 26.5707073, 55.8850126 ], [ 26.5704872, 55.8849375 ], [ 26.5733433, 55.883401099999986 ], [ 26.5736503, 55.883321 ], [ 26.5739167, 55.8833155 ], [ 26.5758154, 55.8838011 ], [ 26.5759664, 55.8837756 ], [ 26.5764504, 55.8831415 ], [ 26.5763903, 55.8830459 ], [ 26.5746754, 55.8825943 ], [ 26.5773062, 55.881194 ], [ 26.5778247, 55.880918 ], [ 26.5749418, 55.879721600000011 ], [ 26.5725566, 55.8786048 ], [ 26.5718637, 55.8782301 ], [ 26.5659102, 55.87549 ], [ 26.5656762, 55.875497 ], [ 26.5648776, 55.8751371 ], [ 26.5643707, 55.8746811 ], [ 26.5634078, 55.8743705 ], [ 26.5592854, 55.8710432 ], [ 26.5596928, 55.8708243 ], [ 26.5586638, 55.8703408 ], [ 26.5579012, 55.869903 ], [ 26.5568336, 55.8689836 ], [ 26.5547479, 55.8678671 ], [ 26.5534781, 55.8673835 ], [ 26.5523254, 55.8670511 ], [ 26.5486046, 55.8662848 ], [ 26.5441673, 55.8663167 ], [ 26.541727, 55.8665714 ], [ 26.5403898, 55.8668202 ], [ 26.5382758, 55.867489 ], [ 26.5362612, 55.8682512 ], [ 26.5356323, 55.8688572 ], [ 26.536082, 55.8689705 ], [ 26.5337877, 55.871397 ], [ 26.53354, 55.8714359 ], [ 26.5330621, 55.8719338 ], [ 26.5331995, 55.8719916 ], [ 26.5327703, 55.8725127 ], [ 26.5327706, 55.8727728 ], [ 26.532772, 55.8739247 ], [ 26.5327085, 55.8742647 ], [ 26.5328527, 55.8746576 ], [ 26.5327703, 55.8752355 ], [ 26.532693, 55.8753 ], [ 26.5328012, 55.8768035 ], [ 26.5332269, 55.87804 ], [ 26.5333643, 55.8787777 ], [ 26.5335394, 55.8787854 ], [ 26.5337128, 55.879392099999976 ], [ 26.5338399, 55.879568399999989 ], [ 26.5339034, 55.880102799999989 ], [ 26.533869, 55.88075 ], [ 26.533972, 55.880854 ], [ 26.5338416, 55.882127 ], [ 26.5337368, 55.8826162 ], [ 26.5336888, 55.8832166 ], [ 26.5334192, 55.884569 ], [ 26.5312767, 55.8881912 ], [ 26.5310363, 55.8888613 ], [ 26.5312629, 55.8889037 ], [ 26.5310088, 55.889229099999987 ], [ 26.530432, 55.891274 ], [ 26.5303015, 55.89130870000001 ], [ 26.5301593, 55.8918471 ], [ 26.5300938, 55.8928577 ], [ 26.5302122, 55.893366 ], [ 26.5308509, 55.8933775 ], [ 26.5309573, 55.8937982 ], [ 26.5312655, 55.8944422 ], [ 26.5316715, 55.8948821 ], [ 26.5323342, 55.8959892 ], [ 26.5326625, 55.8963576 ] ] ] } },
{ "type": "Feature", "properties": { "NOSAUKUMS": "Jaunie Stropi" }, "geometry": { "type": "Polygon", "coordinates": [ [ [ 26.5433603, 55.9100923 ], [ 26.5459939, 55.908426 ], [ 26.5478703, 55.910257799999989 ], [ 26.5487898, 55.9098571 ], [ 26.5488961, 55.9098108 ], [ 26.5516545, 55.9091341 ], [ 26.5534496, 55.9085417 ], [ 26.5560078, 55.9080543 ], [ 26.5564832, 55.9078194 ], [ 26.5567897, 55.9075389 ], [ 26.5575278, 55.9055054 ], [ 26.5587099, 55.9050286 ], [ 26.5590352, 55.9046061 ], [ 26.5589945, 55.9043852 ], [ 26.5595137, 55.9033631 ], [ 26.5599984, 55.9034437 ], [ 26.5600922, 55.9032666 ], [ 26.559595, 55.9031825 ], [ 26.5607615, 55.9009471 ], [ 26.5615246, 55.9010663 ], [ 26.5625817, 55.8990359 ], [ 26.5627271, 55.8990596 ], [ 26.5631321, 55.8983117 ], [ 26.5637091, 55.8983775 ], [ 26.5639139, 55.8982653 ], [ 26.5642332, 55.8985136 ], [ 26.5646395, 55.8983258 ], [ 26.5655998, 55.897717 ], [ 26.5657443, 55.8974089 ], [ 26.565718, 55.8970508 ], [ 26.5657831, 55.8967075 ], [ 26.5663309, 55.8966506 ], [ 26.5662524, 55.896403099999986 ], [ 26.5656778, 55.8964496 ], [ 26.5655278, 55.8963168 ], [ 26.565668, 55.8962653 ], [ 26.5648868, 55.8956915 ], [ 26.5643062, 55.89557760000001 ], [ 26.5644307, 55.8953754 ], [ 26.5648919, 55.8954813 ], [ 26.565259, 55.895377899999986 ], [ 26.5661515, 55.895623099999987 ], [ 26.5662428, 55.895559 ], [ 26.5663946, 55.8955737 ], [ 26.5666385, 55.8953944 ], [ 26.5669926, 55.8955206 ], [ 26.5672308, 55.895397600000017 ], [ 26.5666801, 55.8951913 ], [ 26.5668204, 55.8950266 ], [ 26.5662233, 55.8947915 ], [ 26.5669334, 55.8938931 ], [ 26.5667062, 55.8938281 ], [ 26.5669232, 55.893594899999982 ], [ 26.5659671, 55.8932143 ], [ 26.5665251, 55.89262690000001 ], [ 26.5670407, 55.892433 ], [ 26.5667054, 55.8921403 ], [ 26.5687567, 55.8913659 ], [ 26.5703877, 55.8915798 ], [ 26.5719451, 55.891436 ], [ 26.5729083, 55.8891771 ], [ 26.5716574, 55.8892789 ], [ 26.5716261, 55.8891666 ], [ 26.5729209, 55.8890579 ], [ 26.5729302, 55.8889447 ], [ 26.571089, 55.8887062 ], [ 26.5702282, 55.888315099999986 ], [ 26.5689553, 55.888344 ], [ 26.5687943, 55.888444 ], [ 26.5685581, 55.8884002 ], [ 26.5684862, 55.8882002 ], [ 26.5678576, 55.8878477 ], [ 26.5678263, 55.8875829 ], [ 26.568481, 55.8870939 ], [ 26.5691335, 55.8868445 ], [ 26.5698595, 55.886134 ], [ 26.5700251, 55.886064699999984 ], [ 26.5703613, 55.8861704 ], [ 26.5708356, 55.8856252 ], [ 26.5706699, 55.8855318 ], [ 26.5706293, 55.8854198 ], [ 26.5707073, 55.8850126 ], [ 26.5805811, 55.8881501 ], [ 26.5831475, 55.8887915 ], [ 26.5851707, 55.8893661 ], [ 26.5896787, 55.89066170000001 ], [ 26.5894291, 55.890992 ], [ 26.5890946, 55.8909078 ], [ 26.5889673, 55.8910835 ], [ 26.5898125, 55.8913085 ], [ 26.5895253, 55.8916416 ], [ 26.5896836, 55.8920121 ], [ 26.5897537, 55.8931484 ], [ 26.5917655, 55.8935656 ], [ 26.5908077, 55.8947558 ], [ 26.5899675, 55.8965919 ], [ 26.5900996, 55.896719 ], [ 26.5903656, 55.8967446 ], [ 26.5904406, 55.8966715 ], [ 26.5915566, 55.8967099 ], [ 26.5932894, 55.8968782 ], [ 26.5947904, 55.8971444 ], [ 26.5956633, 55.897100499999986 ], [ 26.5958966, 55.897823199999984 ], [ 26.5957954, 55.8984818 ], [ 26.5948883, 55.8988111 ], [ 26.5941378, 55.8992026 ], [ 26.5934231, 55.8997515 ], [ 26.593012, 55.9003771 ], [ 26.5927542, 55.900571 ], [ 26.5926432, 55.9008473 ], [ 26.5902481, 55.9024736 ], [ 26.5898418, 55.9027004 ], [ 26.5895938, 55.9030489 ], [ 26.5895172, 55.9036736 ], [ 26.5895694, 55.903809 ], [ 26.5894813, 55.9040212 ], [ 26.589106, 55.9046193 ], [ 26.589124, 55.9049312 ], [ 26.5889657, 55.904958599999986 ], [ 26.5890244, 55.9050867 ], [ 26.5892104, 55.9051772 ], [ 26.588566, 55.9058339 ], [ 26.5886443, 55.905904299999989 ], [ 26.5884925, 55.9059894 ], [ 26.5877029, 55.9058458 ], [ 26.5874973, 55.9059601 ], [ 26.5865608, 55.906441199999989 ], [ 26.5862377, 55.9065747 ], [ 26.585466, 55.9071417 ], [ 26.5854187, 55.9073695 ], [ 26.5856014, 55.9075387 ], [ 26.585076, 55.9080508 ], [ 26.5854676, 55.9092342 ], [ 26.5851576, 55.909585399999983 ], [ 26.5850924, 55.9099018 ], [ 26.585138, 55.9104011 ], [ 26.584702, 55.910985 ], [ 26.5844299, 55.9114783 ], [ 26.5844006, 55.9131371 ], [ 26.5846192, 55.914163 ], [ 26.58427, 55.914463 ], [ 26.5841787, 55.9148049 ], [ 26.5843092, 55.9149695 ], [ 26.5839829, 55.9154523 ], [ 26.584146, 55.9155584 ], [ 26.583885, 55.9158693 ], [ 26.5839241, 55.9160375 ], [ 26.5837088, 55.9167854 ], [ 26.5837969, 55.9168567 ], [ 26.5837414, 55.9170588 ], [ 26.5835897, 55.9172215 ], [ 26.5835962, 55.9174181 ], [ 26.5837537, 55.9176394 ], [ 26.5840547, 55.9177893 ], [ 26.5838719, 55.9180618 ], [ 26.5838393, 55.9185445 ], [ 26.5836794, 55.9189432 ], [ 26.5831312, 55.9194972 ], [ 26.5829566, 55.9197441 ], [ 26.5827086, 55.9198931 ], [ 26.582521, 55.9202359 ], [ 26.5826091, 55.9207058 ], [ 26.583185, 55.92138150000001 ], [ 26.5834869, 55.9215652 ], [ 26.583637, 55.921759 ], [ 26.5840514, 55.9220296 ], [ 26.5844332, 55.9224886 ], [ 26.5844887, 55.9227573 ], [ 26.5846029, 55.9228625 ], [ 26.5846323, 55.9230791 ], [ 26.5845344, 55.9234036 ], [ 26.5847138, 55.9236002 ], [ 26.5846486, 55.9240152 ], [ 26.5848411, 55.924355299999988 ], [ 26.5855166, 55.9248069 ], [ 26.5860517, 55.9255967 ], [ 26.5865118, 55.9256406 ], [ 26.5865895, 55.9258436 ], [ 26.586383, 55.9259368 ], [ 26.585573, 55.9255686 ], [ 26.5846288, 55.9252861 ], [ 26.5836284, 55.9250877 ], [ 26.5830651, 55.925038099999988 ], [ 26.5830034, 55.9252606 ], [ 26.5831912, 55.92566630000001 ], [ 26.5828344, 55.9258556 ], [ 26.5816221, 55.9261915 ], [ 26.5805438, 55.92620729999998 ], [ 26.5789372, 55.9261021 ], [ 26.5784287, 55.926227199999985 ], [ 26.5768397, 55.9263801 ], [ 26.5768531, 55.926510800000017 ], [ 26.577006, 55.9267535 ], [ 26.5764964, 55.9266972 ], [ 26.5764682, 55.926616399999986 ], [ 26.5749943, 55.9266701 ], [ 26.5747583, 55.9275823 ], [ 26.5634796, 55.9269436 ], [ 26.5613211, 55.927555 ], [ 26.5599622, 55.926141 ], [ 26.5579539, 55.9240991 ], [ 26.555683, 55.9218111 ], [ 26.5546518, 55.920733 ], [ 26.5536958, 55.9200667 ], [ 26.5515027, 55.9184929 ], [ 26.549607, 55.9165829 ], [ 26.5497774, 55.9163944 ], [ 26.5481526, 55.914801 ], [ 26.5471828, 55.9140675 ], [ 26.5461328, 55.9130283 ], [ 26.5447627, 55.9116721 ], [ 26.5440806, 55.91096550000001 ], [ 26.5433603, 55.9100923 ] ] ] } },
{ "type": "Feature", "properties": { "NOSAUKUMS": "Judovka" }, "geometry": { "type": "Polygon", "coordinates": [ [ [ 26.5429033, 55.8583673 ], [ 26.5429457, 55.857123799999989 ], [ 26.5421421, 55.8566249 ], [ 26.5430697, 55.8563692 ], [ 26.5469634, 55.854222599999986 ], [ 26.548418, 55.8534231 ], [ 26.5485478, 55.8532211 ], [ 26.5602655, 55.8541512 ], [ 26.5611033, 55.8542649 ], [ 26.5615984, 55.8542738 ], [ 26.5623305, 55.8543771 ], [ 26.5625092, 55.8544989 ], [ 26.562762, 55.8546619 ], [ 26.5624482, 55.8560531 ], [ 26.5623043, 55.8564351 ], [ 26.5623146, 55.8564722 ], [ 26.5624519, 55.8565504 ], [ 26.5626287, 55.8566512 ], [ 26.5626293, 55.8570711 ], [ 26.5625591, 55.8572227 ], [ 26.5625737, 55.8574307 ], [ 26.5624538, 55.8576224 ], [ 26.5623672, 55.8579525 ], [ 26.5624514, 55.8581042 ], [ 26.5623916, 55.858281 ], [ 26.5611791, 55.8591151 ], [ 26.5609768, 55.8592543 ], [ 26.5609644, 55.8596708 ], [ 26.558302, 55.8591896 ], [ 26.5563441, 55.8589405 ], [ 26.5501937, 55.8589657 ], [ 26.5462023, 55.8586548 ], [ 26.5442052, 55.858376499999984 ], [ 26.5429033, 55.8583673 ] ] ] } },
{ "type": "Feature", "properties": { "NOSAUKUMS": "Kalkūni" }, "geometry": { "type": "Polygon", "coordinates": [ [ [ 26.4876441, 55.8386914 ], [ 26.4869682, 55.8381594 ], [ 26.4868344, 55.8380502 ], [ 26.4867422, 55.8379772 ], [ 26.4860888, 55.8374573 ], [ 26.4898782, 55.836949 ], [ 26.4903273, 55.8369077 ], [ 26.49042, 55.8368968 ], [ 26.4905542, 55.836881 ], [ 26.4899206, 55.8364689 ], [ 26.489036, 55.8358937 ], [ 26.4907739, 55.8356071 ], [ 26.4908809, 55.8355913 ], [ 26.4912394, 55.8355555 ], [ 26.4915362, 55.835505499999989 ], [ 26.4917088, 55.8355352 ], [ 26.4921815, 55.8354718 ], [ 26.4926398, 55.8353375 ], [ 26.4927151, 55.8353298 ], [ 26.493102, 55.8352832 ], [ 26.4935544, 55.8351541 ], [ 26.4936211, 55.835135 ], [ 26.4935554, 55.834994799999983 ], [ 26.4941076, 55.8349287 ], [ 26.4943096, 55.8349045 ], [ 26.4944867, 55.8347918 ], [ 26.4946499, 55.8347681 ], [ 26.4948045, 55.8347517 ], [ 26.4953326, 55.835975699999985 ], [ 26.4955845, 55.836547699999983 ], [ 26.4956822, 55.8367436 ], [ 26.4957337, 55.8368467 ], [ 26.4963391, 55.8383265 ], [ 26.4963652, 55.8383894 ], [ 26.4964909, 55.838792 ], [ 26.4969447, 55.8398075 ], [ 26.4971207, 55.8401876 ], [ 26.4974695, 55.841097 ], [ 26.497521, 55.8412301 ], [ 26.4976611, 55.8420079 ], [ 26.4976916, 55.8422165 ], [ 26.4948406, 55.8422907 ], [ 26.4947473, 55.8431149 ], [ 26.49636, 55.843116 ], [ 26.4964014, 55.8436563 ], [ 26.4974636, 55.8436468 ], [ 26.4972229, 55.8444307 ], [ 26.4971768, 55.8445863 ], [ 26.4971432, 55.8446998 ], [ 26.4970812, 55.8449093 ], [ 26.4970002, 55.845183 ], [ 26.4968786, 55.8451756 ], [ 26.4957178, 55.8451048 ], [ 26.4947858, 55.8450481 ], [ 26.4945476, 55.845009799999985 ], [ 26.4945672, 55.8448247 ], [ 26.4945838, 55.844668699999986 ], [ 26.4946025, 55.844492199999983 ], [ 26.4946215, 55.844313 ], [ 26.4946374, 55.8441628 ], [ 26.4946524, 55.8440217 ], [ 26.4947239, 55.8433376 ], [ 26.4945639, 55.843338 ], [ 26.4941085, 55.843339 ], [ 26.4930505, 55.8433412 ], [ 26.493031, 55.8431537 ], [ 26.4930289, 55.8431332 ], [ 26.4930219, 55.8430662 ], [ 26.4928516, 55.8430652 ], [ 26.4927961, 55.8430646 ], [ 26.4925923, 55.8430636 ], [ 26.4924445, 55.8430628 ], [ 26.4923945, 55.843062499999988 ], [ 26.4922681, 55.8430617 ], [ 26.4922215, 55.8430612 ], [ 26.4904218, 55.8430566 ], [ 26.4904274, 55.842801199999982 ], [ 26.4904428, 55.8420956 ], [ 26.4900392, 55.8420916 ], [ 26.4897302, 55.8420885 ], [ 26.4893876, 55.8420851 ], [ 26.4893101, 55.8420843 ], [ 26.488848, 55.842079699999985 ], [ 26.4890756, 55.8417107 ], [ 26.4892548, 55.8414201 ], [ 26.4898407, 55.8404703 ], [ 26.4892893, 55.8400081 ], [ 26.4891362, 55.839882499999987 ], [ 26.4889399, 55.8397186 ], [ 26.4885028, 55.8393716 ], [ 26.4876441, 55.8386914 ] ] ] } },
{ "type": "Feature", "properties": { "NOSAUKUMS": "Ķīmija" }, "geometry": { "type": "Polygon", "coordinates": [ [ [ 26.5308335, 55.8975188 ], [ 26.5323428, 55.8970353 ], [ 26.532141, 55.8966241 ], [ 26.5327087, 55.89644 ], [ 26.5326625, 55.8963576 ], [ 26.533331, 55.8960779 ], [ 26.5334936, 55.895962099999984 ], [ 26.5353044, 55.8951608 ], [ 26.5358611, 55.8949731 ], [ 26.5388259, 55.8936088 ], [ 26.5399017, 55.8936877 ], [ 26.5453668, 55.89419620000001 ], [ 26.5455511, 55.8930472 ], [ 26.5457605, 55.892497 ], [ 26.5461597, 55.892512899999986 ], [ 26.5462733, 55.8919667 ], [ 26.5460515, 55.8919478 ], [ 26.546048, 55.8911318 ], [ 26.5456469, 55.8910264 ], [ 26.5457428, 55.890897 ], [ 26.544467, 55.8901235 ], [ 26.5441511, 55.8902881 ], [ 26.5428966, 55.8901627 ], [ 26.5428895, 55.8897706 ], [ 26.5436419, 55.8893507 ], [ 26.5435079, 55.8892751 ], [ 26.5442931, 55.888858199999987 ], [ 26.5449283, 55.8892194 ], [ 26.5466069, 55.888322799999983 ], [ 26.5467207, 55.8883723 ], [ 26.5473577, 55.888751 ], [ 26.5465792, 55.8892082 ], [ 26.5466459, 55.889359699999986 ], [ 26.5470913, 55.8896234 ], [ 26.5478188, 55.8896423 ], [ 26.5485055, 55.8897736 ], [ 26.5499615, 55.888938799999984 ], [ 26.5494504, 55.8887212 ], [ 26.5493857, 55.8886004 ], [ 26.5496293, 55.8884645 ], [ 26.5490403, 55.8881048 ], [ 26.5494533, 55.8878674 ], [ 26.5498115, 55.8880818 ], [ 26.5500253, 55.8879591 ], [ 26.550512, 55.8876826 ], [ 26.55054, 55.8876991 ], [ 26.5519952, 55.8868833 ], [ 26.5522125, 55.8867612 ], [ 26.5519029, 55.8865779 ], [ 26.5522342, 55.8863966 ], [ 26.5528398, 55.8860653 ], [ 26.5531908, 55.8862727 ], [ 26.5548554, 55.8853641 ], [ 26.5551869, 55.8854158 ], [ 26.5552885, 55.8857623 ], [ 26.5552307, 55.8857956 ], [ 26.5553401, 55.8859017 ], [ 26.5556601, 55.8861182 ], [ 26.5557412, 55.8864333 ], [ 26.557509, 55.8867427 ], [ 26.5579844, 55.8864902 ], [ 26.5584159, 55.8865323 ], [ 26.5587412, 55.8862692 ], [ 26.5591915, 55.8856307 ], [ 26.5590539, 55.8851817 ], [ 26.559276, 55.88488 ], [ 26.5592228, 55.8847186 ], [ 26.5601923, 55.8842748 ], [ 26.5605144, 55.8842836 ], [ 26.5604707, 55.884024 ], [ 26.5608274, 55.883607 ], [ 26.5615738, 55.883335700000011 ], [ 26.562444, 55.8831908 ], [ 26.563007, 55.8830216 ], [ 26.5642454, 55.883407499999983 ], [ 26.5643862, 55.8835697 ], [ 26.5638795, 55.8849826 ], [ 26.5634245, 55.8849081 ], [ 26.5632947, 55.8850484 ], [ 26.5638107, 55.8853089 ], [ 26.5633291, 55.8858008 ], [ 26.5636074, 55.886427 ], [ 26.563792, 55.8866138 ], [ 26.5643674, 55.8869023 ], [ 26.565007, 55.8870672 ], [ 26.5653666, 55.8869164 ], [ 26.5657435, 55.8869216 ], [ 26.5659264, 55.886846199999987 ], [ 26.5663392, 55.8869646 ], [ 26.5665488, 55.886813799999985 ], [ 26.5669022, 55.8869251 ], [ 26.5679285, 55.886861 ], [ 26.568481, 55.8870939 ], [ 26.5678263, 55.8875829 ], [ 26.5678576, 55.8878477 ], [ 26.5684862, 55.8882002 ], [ 26.5685581, 55.8884002 ], [ 26.5687943, 55.888444 ], [ 26.5689553, 55.888344 ], [ 26.5702282, 55.888315099999986 ], [ 26.571089, 55.8887062 ], [ 26.5729302, 55.8889447 ], [ 26.5729209, 55.8890579 ], [ 26.5716261, 55.8891666 ], [ 26.5716574, 55.8892789 ], [ 26.5729083, 55.8891771 ], [ 26.5719451, 55.891436 ], [ 26.5703877, 55.8915798 ], [ 26.5687567, 55.8913659 ], [ 26.5667054, 55.8921403 ], [ 26.5670407, 55.892433 ], [ 26.5665251, 55.89262690000001 ], [ 26.5659671, 55.8932143 ], [ 26.5669232, 55.893594899999982 ], [ 26.5667062, 55.8938281 ], [ 26.5669334, 55.8938931 ], [ 26.5662233, 55.8947915 ], [ 26.5668204, 55.8950266 ], [ 26.5666801, 55.8951913 ], [ 26.5672308, 55.895397600000017 ], [ 26.5669926, 55.8955206 ], [ 26.5666385, 55.8953944 ], [ 26.5663946, 55.8955737 ], [ 26.5662428, 55.895559 ], [ 26.5661515, 55.895623099999987 ], [ 26.565259, 55.895377899999986 ], [ 26.5648919, 55.8954813 ], [ 26.5644307, 55.8953754 ], [ 26.5643062, 55.89557760000001 ], [ 26.5648868, 55.8956915 ], [ 26.565668, 55.8962653 ], [ 26.5655278, 55.8963168 ], [ 26.5656778, 55.8964496 ], [ 26.5662524, 55.896403099999986 ], [ 26.5663309, 55.8966506 ], [ 26.5657831, 55.8967075 ], [ 26.565718, 55.8970508 ], [ 26.5657443, 55.8974089 ], [ 26.5655998, 55.897717 ], [ 26.5646395, 55.8983258 ], [ 26.5642332, 55.8985136 ], [ 26.5639139, 55.8982653 ], [ 26.5637091, 55.8983775 ], [ 26.5631321, 55.8983117 ], [ 26.5627271, 55.8990596 ], [ 26.5625817, 55.8990359 ], [ 26.5615246, 55.9010663 ], [ 26.5607615, 55.9009471 ], [ 26.559595, 55.9031825 ], [ 26.5600922, 55.9032666 ], [ 26.5599984, 55.9034437 ], [ 26.5595137, 55.9033631 ], [ 26.5589945, 55.9043852 ], [ 26.5590352, 55.9046061 ], [ 26.5587099, 55.9050286 ], [ 26.5575278, 55.9055054 ], [ 26.5567897, 55.9075389 ], [ 26.5564832, 55.9078194 ], [ 26.5560078, 55.9080543 ], [ 26.5534496, 55.9085417 ], [ 26.5516545, 55.9091341 ], [ 26.5488961, 55.9098108 ], [ 26.5487898, 55.9098571 ], [ 26.5478703, 55.910257799999989 ], [ 26.5459939, 55.908426 ], [ 26.5433603, 55.9100923 ], [ 26.5420662, 55.908644399999986 ], [ 26.5411243, 55.9075832 ], [ 26.5387956, 55.90506220000001 ], [ 26.5366617, 55.9028687 ], [ 26.5352919, 55.900999699999986 ], [ 26.5308335, 55.8975188 ] ] ] } },
{ "type": "Feature", "properties": { "NOSAUKUMS": "Križi" }, "geometry": { "type": "Polygon", "coordinates": [ [ [ 26.5726645, 55.9392873 ], [ 26.5736174, 55.9392224 ], [ 26.5748813, 55.939114499999988 ], [ 26.5759865, 55.939529899999989 ], [ 26.5769671, 55.939775 ], [ 26.5845035, 55.940738399999987 ], [ 26.5864358, 55.94095870000001 ], [ 26.5875998, 55.9410151 ], [ 26.5876693, 55.9409082 ], [ 26.5919568, 55.940679 ], [ 26.5927928, 55.9402198 ], [ 26.5933669, 55.9393869 ], [ 26.5932547, 55.9390043 ], [ 26.5923837, 55.938693 ], [ 26.5950655, 55.9357519 ], [ 26.5952227, 55.9355539 ], [ 26.5954464, 55.9355938 ], [ 26.5961964, 55.9353309 ], [ 26.5974944, 55.9351989 ], [ 26.5978914, 55.9349821 ], [ 26.5978485, 55.9345947 ], [ 26.5981057, 55.9342843 ], [ 26.5980752, 55.9341815 ], [ 26.598349, 55.9338623 ], [ 26.5984206, 55.933552799999987 ], [ 26.5986438, 55.933479 ], [ 26.5987933, 55.9332414 ], [ 26.5999082, 55.9334912 ], [ 26.6004749, 55.933432 ], [ 26.6006993, 55.933398199999985 ], [ 26.6023856, 55.9328909 ], [ 26.6029891, 55.9323536 ], [ 26.6031313, 55.9323538 ], [ 26.6037146, 55.9317678 ], [ 26.6037005, 55.931343 ], [ 26.6050421, 55.932381199999988 ], [ 26.6055836, 55.9327127 ], [ 26.6059612, 55.9328071 ], [ 26.6067476, 55.931891099999987 ], [ 26.6062725, 55.9327951 ], [ 26.6058331, 55.9333766 ], [ 26.6055686, 55.9337717 ], [ 26.6053943, 55.9340224 ], [ 26.6051668, 55.9343148 ], [ 26.6049851, 55.9345473 ], [ 26.6041831, 55.9356439 ], [ 26.6036248, 55.936447499999986 ], [ 26.6028783, 55.9375254 ], [ 26.6023128, 55.938537599999989 ], [ 26.6014881, 55.939798799999984 ], [ 26.6012773, 55.9400278 ], [ 26.6009715, 55.9403588 ], [ 26.6006727, 55.9406808 ], [ 26.5993023, 55.9419034 ], [ 26.5990673, 55.9422004 ], [ 26.5989419, 55.9423015 ], [ 26.5981717, 55.9429269 ], [ 26.5978207, 55.9432119 ], [ 26.5975962, 55.943395 ], [ 26.5975047, 55.943468399999986 ], [ 26.5968283, 55.94393 ], [ 26.5967133, 55.9439984 ], [ 26.5960111, 55.9444846 ], [ 26.5955996, 55.9447646 ], [ 26.595059, 55.945132399999984 ], [ 26.594044, 55.9459142 ], [ 26.5938098, 55.9460991 ], [ 26.5937254, 55.9461386 ], [ 26.5934903, 55.9462485 ], [ 26.5932878, 55.9463431 ], [ 26.5930626, 55.9464484 ], [ 26.5931244, 55.9471603 ], [ 26.5931302, 55.9472267 ], [ 26.5931559, 55.9475232 ], [ 26.5932004, 55.948035399999988 ], [ 26.5932424, 55.9491673 ], [ 26.5932295, 55.949436499999983 ], [ 26.5932143, 55.9497518 ], [ 26.5932114, 55.9498045 ], [ 26.5932076, 55.9498897 ], [ 26.5934292, 55.9510216 ], [ 26.5934381, 55.95288750000001 ], [ 26.5933247, 55.9533277 ], [ 26.5929267, 55.9539591 ], [ 26.5922235, 55.9554663 ], [ 26.5919011, 55.9561573 ], [ 26.5917329, 55.9564884 ], [ 26.5911746, 55.9575853 ], [ 26.5893938, 55.9557812 ], [ 26.5869135, 55.9533134 ], [ 26.5858504, 55.9522258 ], [ 26.5857927, 55.9521742 ], [ 26.58559, 55.9519929 ], [ 26.5855385, 55.9519469 ], [ 26.584712, 55.9511235 ], [ 26.5827282, 55.9491544 ], [ 26.581654, 55.9480921 ], [ 26.5808095, 55.9482014 ], [ 26.580074, 55.9476962 ], [ 26.5791594, 55.9467629 ], [ 26.5795009, 55.9464698 ], [ 26.5800786, 55.946354 ], [ 26.5774333, 55.9436908 ], [ 26.5750603, 55.941304 ], [ 26.5739215, 55.9401569 ], [ 26.5734813, 55.9402247 ], [ 26.5730632, 55.9398459 ], [ 26.5726645, 55.9392873 ] ] ] } },
{ "type": "Feature", "properties": { "NOSAUKUMS": "Ligiņiški" }, "geometry": { "type": "Polygon", "coordinates": [ [ [ 26.5249538, 55.8460292 ], [ 26.5251645, 55.8460368 ], [ 26.5328234, 55.8444387 ], [ 26.5337348, 55.8446317 ], [ 26.535006, 55.8438599 ], [ 26.5378252, 55.8428905 ], [ 26.5405449, 55.8438994 ], [ 26.5421335, 55.8440786 ], [ 26.543204, 55.844088599999985 ], [ 26.5470809, 55.8440819 ], [ 26.5468855, 55.8453188 ], [ 26.5464122, 55.850125499999983 ], [ 26.5463516, 55.8517253 ], [ 26.5439856, 55.8518312 ], [ 26.5419299, 55.8519249 ], [ 26.5397783, 55.8521254 ], [ 26.5347736, 55.8523682 ], [ 26.5307857, 55.8524202 ], [ 26.5296896, 55.852818899999988 ], [ 26.5294754, 55.8521422 ], [ 26.5294854, 55.8507466 ], [ 26.529412, 55.8501808 ], [ 26.529412, 55.8497518 ], [ 26.5287445, 55.8497555 ], [ 26.5282039, 55.8495551 ], [ 26.5253097, 55.849704499999987 ], [ 26.5250569, 55.8482755 ], [ 26.5246531, 55.8473051 ], [ 26.5249538, 55.8460292 ] ] ] } },
{ "type": "Feature", "properties": { "NOSAUKUMS": "Mazie Stropi" }, "geometry": { "type": "Polygon", "coordinates": [ [ [ 26.5613211, 55.927555 ], [ 26.5634796, 55.9269436 ], [ 26.5747583, 55.9275823 ], [ 26.5749943, 55.9266701 ], [ 26.5764682, 55.926616399999986 ], [ 26.5764964, 55.9266972 ], [ 26.577006, 55.9267535 ], [ 26.5768531, 55.926510800000017 ], [ 26.5768397, 55.9263801 ], [ 26.5784287, 55.926227199999985 ], [ 26.5789372, 55.9261021 ], [ 26.5805438, 55.92620729999998 ], [ 26.5816221, 55.9261915 ], [ 26.5828344, 55.9258556 ], [ 26.5831912, 55.92566630000001 ], [ 26.5830034, 55.9252606 ], [ 26.5830651, 55.925038099999988 ], [ 26.5836284, 55.9250877 ], [ 26.5846288, 55.9252861 ], [ 26.585573, 55.9255686 ], [ 26.586383, 55.9259368 ], [ 26.5865895, 55.9258436 ], [ 26.5873419, 55.9260585 ], [ 26.588227, 55.9266123 ], [ 26.5893897, 55.9267949 ], [ 26.5904358, 55.9268985 ], [ 26.5914926, 55.9267182 ], [ 26.5918386, 55.9265529 ], [ 26.5920719, 55.9262629 ], [ 26.5920833, 55.9261044 ], [ 26.5923214, 55.9256092 ], [ 26.5942901, 55.925256 ], [ 26.5968047, 55.9251231 ], [ 26.5973693, 55.925307099999984 ], [ 26.597954, 55.9254244 ], [ 26.5990698, 55.9253793 ], [ 26.600486, 55.9255746 ], [ 26.601398, 55.9256272 ], [ 26.6020913, 55.9255153 ], [ 26.6035196, 55.925475499999983 ], [ 26.6046703, 55.9255942 ], [ 26.605711, 55.92611260000001 ], [ 26.6079721, 55.925639299999986 ], [ 26.6085809, 55.9251178 ], [ 26.6092274, 55.9246715 ], [ 26.6106838, 55.923119 ], [ 26.6114633, 55.9216852 ], [ 26.6119175, 55.9220423 ], [ 26.6117903, 55.9223183 ], [ 26.6116156, 55.9226269 ], [ 26.611495, 55.9228291 ], [ 26.6113073, 55.923143699999983 ], [ 26.6109579, 55.92387080000001 ], [ 26.6104079, 55.9243217 ], [ 26.6102741, 55.9247586 ], [ 26.6096961, 55.9252356 ], [ 26.6095837, 55.925345 ], [ 26.6098567, 55.9253532 ], [ 26.6112679, 55.9253792 ], [ 26.6106506, 55.9260674 ], [ 26.6087373, 55.9281549 ], [ 26.6088726, 55.9287989 ], [ 26.6080665, 55.9298541 ], [ 26.6075459, 55.9308168 ], [ 26.6067476, 55.931891099999987 ], [ 26.6059612, 55.9328071 ], [ 26.6055836, 55.9327127 ], [ 26.6050421, 55.932381199999988 ], [ 26.6037005, 55.931343 ], [ 26.6037146, 55.9317678 ], [ 26.6031313, 55.9323538 ], [ 26.6029891, 55.9323536 ], [ 26.6023856, 55.9328909 ], [ 26.6006993, 55.933398199999985 ], [ 26.6004749, 55.933432 ], [ 26.5999082, 55.9334912 ], [ 26.5987933, 55.9332414 ], [ 26.5986438, 55.933479 ], [ 26.5984206, 55.933552799999987 ], [ 26.598349, 55.9338623 ], [ 26.5980752, 55.9341815 ], [ 26.5981057, 55.9342843 ], [ 26.5978485, 55.9345947 ], [ 26.5978914, 55.9349821 ], [ 26.5974944, 55.9351989 ], [ 26.5961964, 55.9353309 ], [ 26.5954464, 55.9355938 ], [ 26.5952227, 55.9355539 ], [ 26.5950655, 55.9357519 ], [ 26.5923837, 55.938693 ], [ 26.5932547, 55.9390043 ], [ 26.5933669, 55.9393869 ], [ 26.5927928, 55.9402198 ], [ 26.5919568, 55.940679 ], [ 26.5876693, 55.9409082 ], [ 26.5875998, 55.9410151 ], [ 26.5864358, 55.94095870000001 ], [ 26.5845035, 55.940738399999987 ], [ 26.5769671, 55.939775 ], [ 26.5759865, 55.939529899999989 ], [ 26.5748813, 55.939114499999988 ], [ 26.5736174, 55.9392224 ], [ 26.5726645, 55.9392873 ], [ 26.5723586, 55.9388845 ], [ 26.5713363, 55.9377047 ], [ 26.5711564, 55.9374922 ], [ 26.5707945, 55.9370731 ], [ 26.570536, 55.9367736 ], [ 26.57001, 55.9363001 ], [ 26.5694969, 55.9358382 ], [ 26.5693768, 55.935698 ], [ 26.5689931, 55.9352502 ], [ 26.5673162, 55.9335571 ], [ 26.5669062, 55.9331828 ], [ 26.5666912, 55.9329864 ], [ 26.5650768, 55.9312737 ], [ 26.5635958, 55.929868 ], [ 26.5615877, 55.9278325 ], [ 26.5613211, 55.927555 ] ] ] } },
{ "type": "Feature", "properties": { "NOSAUKUMS": "Mežciems" }, "geometry": { "type": "Polygon", "coordinates": [ [ [ 26.439543, 55.9144488 ], [ 26.4397146, 55.9145734 ], [ 26.4398346, 55.9146847 ], [ 26.4399435, 55.9147857 ], [ 26.4406031, 55.9149658 ], [ 26.4403735, 55.9152297 ], [ 26.4404139, 55.915244800000011 ], [ 26.4405271, 55.915287199999987 ], [ 26.4412202, 55.9158256 ], [ 26.4414804, 55.9160278 ], [ 26.4418351, 55.9162603 ], [ 26.4418971, 55.9163009 ], [ 26.4419133, 55.9163116 ], [ 26.4420819, 55.9164233 ], [ 26.4423753, 55.9166209 ], [ 26.4425994, 55.9167717 ], [ 26.4430005, 55.9170128 ], [ 26.44305, 55.9170434 ], [ 26.4432373, 55.9171501 ], [ 26.4436385, 55.9174085 ], [ 26.4438287, 55.9175648 ], [ 26.4439398, 55.9176172 ], [ 26.4440007, 55.9176362 ], [ 26.4443285, 55.9178054 ], [ 26.4445912, 55.9179152 ], [ 26.4449018, 55.9180408 ], [ 26.4451555, 55.9181737 ], [ 26.4455939, 55.9184477 ], [ 26.4456429, 55.9184766 ], [ 26.4466408, 55.9192679 ], [ 26.4473024, 55.9197791 ], [ 26.4481027, 55.9203909 ], [ 26.4482903, 55.9206433 ], [ 26.4489861, 55.9215793 ], [ 26.4495033, 55.9227868 ], [ 26.4495238, 55.9236529 ], [ 26.4496529, 55.924363 ], [ 26.4495956, 55.9247917 ], [ 26.4496911, 55.9250233 ], [ 26.4505848, 55.9250475 ], [ 26.4516573, 55.9250582 ], [ 26.4519582, 55.9250083 ], [ 26.4523182, 55.924643 ], [ 26.4524918, 55.9244494 ], [ 26.4541872, 55.9246229 ], [ 26.4552507, 55.9247616 ], [ 26.4553902, 55.9247419 ], [ 26.456308, 55.9246122 ], [ 26.4578045, 55.9243903 ], [ 26.4595131, 55.9240543 ], [ 26.4611997, 55.923999799999983 ], [ 26.4624086, 55.9247096 ], [ 26.4638209, 55.9255066 ], [ 26.4649187, 55.925264699999978 ], [ 26.4681565, 55.924544399999988 ], [ 26.4706017, 55.9240277 ], [ 26.4722044, 55.9236775 ], [ 26.472808, 55.9235455 ], [ 26.4783042, 55.922348799999988 ], [ 26.4818537, 55.921576 ], [ 26.4819762, 55.9215484 ], [ 26.4822622, 55.9214838 ], [ 26.4825536, 55.9214181 ], [ 26.4832645, 55.921262 ], [ 26.4837662, 55.9211509 ], [ 26.4841765, 55.9194938 ], [ 26.4842578, 55.9191666 ], [ 26.4842947, 55.9190177 ], [ 26.4843409, 55.9189004 ], [ 26.4844488, 55.918643 ], [ 26.4845459, 55.9184223 ], [ 26.4846278, 55.9182025 ], [ 26.4847042, 55.9179974 ], [ 26.4847974, 55.917747 ], [ 26.4849213, 55.917462 ], [ 26.4850807, 55.9170161 ], [ 26.485694, 55.9155584 ], [ 26.4844605, 55.9154322 ], [ 26.4838307, 55.915434 ], [ 26.4805871, 55.9137662 ], [ 26.4799541, 55.9135211 ], [ 26.4784857, 55.9130566 ], [ 26.471527, 55.9111866 ], [ 26.4710229, 55.9110357 ], [ 26.4706982, 55.9109141 ], [ 26.4698759, 55.9105821 ], [ 26.4691335, 55.9101853 ], [ 26.4680265, 55.9092657 ], [ 26.4640095, 55.9047934 ], [ 26.4640365, 55.9045992 ], [ 26.4637526, 55.9043504 ], [ 26.4635601, 55.9042699 ], [ 26.4632893, 55.9039517 ], [ 26.4630054, 55.9035657 ], [ 26.4628846, 55.9032474 ], [ 26.4628782, 55.9030434 ], [ 26.4623117, 55.903097 ], [ 26.461926, 55.9030855 ], [ 26.4618065, 55.902723900000012 ], [ 26.4599772, 55.9027966 ], [ 26.4590693, 55.9033323 ], [ 26.4582195, 55.903003199999986 ], [ 26.4568577, 55.9037819 ], [ 26.4563799, 55.903558099999984 ], [ 26.4552783, 55.9041931 ], [ 26.45334, 55.9055321 ], [ 26.4517508, 55.9069552 ], [ 26.4507033, 55.9076868 ], [ 26.448318, 55.909792 ], [ 26.4467941, 55.9105437 ], [ 26.4445686, 55.9117472 ], [ 26.4429175, 55.912361699999984 ], [ 26.4413708, 55.9131481 ], [ 26.4404147, 55.9137571 ], [ 26.4401797, 55.9139893 ], [ 26.439543, 55.9144488 ] ] ] } },
{ "type": "Feature", "properties": { "NOSAUKUMS": "Nīderkūni" }, "geometry": { "type": "Polygon", "coordinates": [ [ [ 26.4881668, 55.8506729 ], [ 26.4886031, 55.8507868 ], [ 26.4888835, 55.85086 ], [ 26.4899042, 55.8511812 ], [ 26.4900308, 55.8510908 ], [ 26.4906917, 55.850618899999986 ], [ 26.491843, 55.8498226 ], [ 26.4918361, 55.8497822 ], [ 26.4920138, 55.8497045 ], [ 26.4921674, 55.8497482 ], [ 26.4922886, 55.8497931 ], [ 26.4924781, 55.8498481 ], [ 26.4928065, 55.8496187 ], [ 26.4931953, 55.8493184 ], [ 26.4934415, 55.849119 ], [ 26.494201, 55.8485639 ], [ 26.4945733, 55.8483092 ], [ 26.4947378, 55.848122 ], [ 26.4949391, 55.847893 ], [ 26.4949879, 55.8477948 ], [ 26.4951644, 55.8476117 ], [ 26.49526, 55.8474539 ], [ 26.4963543, 55.8461775 ], [ 26.4963994, 55.8460719 ], [ 26.4964799, 55.845961 ], [ 26.4966291, 55.8459847 ], [ 26.4973488, 55.8461773 ], [ 26.497548, 55.8462301 ], [ 26.4977433, 55.8462819 ], [ 26.4981281, 55.8463846 ], [ 26.4995217, 55.8468993 ], [ 26.4995504, 55.8469108 ], [ 26.4997211, 55.8469718 ], [ 26.5016259, 55.8504257 ], [ 26.50166, 55.8504936 ], [ 26.5022506, 55.8504046 ], [ 26.5028386, 55.850115 ], [ 26.5039538, 55.849716 ], [ 26.5040628, 55.8496376 ], [ 26.5044131, 55.8495581 ], [ 26.504534, 55.8494483 ], [ 26.5048551, 55.8493062 ], [ 26.5049351, 55.848736 ], [ 26.5053213, 55.8486025 ], [ 26.505326, 55.8485719 ], [ 26.5053239, 55.848560399999982 ], [ 26.5053176, 55.8485258 ], [ 26.5052431, 55.8478965 ], [ 26.5053031, 55.8477458 ], [ 26.5053252, 55.8475303 ], [ 26.5052155, 55.8474601 ], [ 26.5052364, 55.8473516 ], [ 26.5053179, 55.8472698 ], [ 26.5054596, 55.8472396 ], [ 26.5056599, 55.8472325 ], [ 26.5058991, 55.8472953 ], [ 26.5062047, 55.8473634 ], [ 26.5064058, 55.8474079 ], [ 26.5064836, 55.8474608 ], [ 26.5065195, 55.8474918 ], [ 26.5065128, 55.8475237 ], [ 26.506439, 55.8475704 ], [ 26.5064357, 55.8476047 ], [ 26.5066052, 55.8476404 ], [ 26.5067628, 55.847647 ], [ 26.5068516, 55.8476754 ], [ 26.5070471, 55.8477162 ], [ 26.5072554, 55.8477792 ], [ 26.507858, 55.8481511 ], [ 26.5079244, 55.848213800000011 ], [ 26.5078823, 55.8483523 ], [ 26.5077942, 55.848482199999985 ], [ 26.5077417, 55.848547299999986 ], [ 26.5078201, 55.8487955 ], [ 26.5077934, 55.8489218 ], [ 26.507799, 55.8490082 ], [ 26.5078934, 55.8490633 ], [ 26.5082217, 55.8496689 ], [ 26.5082764, 55.8499012 ], [ 26.508394, 55.8500606 ], [ 26.5086909, 55.8505285 ], [ 26.5087594, 55.850799299999984 ], [ 26.5089189, 55.8509407 ], [ 26.5086608, 55.8510322 ], [ 26.5085673, 55.85120830000001 ], [ 26.508554, 55.851774 ], [ 26.5087208, 55.8525832 ], [ 26.5087876, 55.8527818 ], [ 26.5086674, 55.8529392 ], [ 26.5084872, 55.852868 ], [ 26.5084538, 55.8526881 ], [ 26.508554, 55.8524596 ], [ 26.508287, 55.8523734 ], [ 26.5074927, 55.852658199999986 ], [ 26.5072191, 55.8528305 ], [ 26.5069321, 55.853089 ], [ 26.5063114, 55.85313020000001 ], [ 26.498776, 55.8525196 ], [ 26.4991898, 55.8530403 ], [ 26.4995302, 55.8533382 ], [ 26.503962, 55.8589986 ], [ 26.5036516, 55.8591147 ], [ 26.5016493, 55.8591259 ], [ 26.5009368, 55.859273 ], [ 26.5007099, 55.859495799999983 ], [ 26.5002126, 55.8597646 ], [ 26.4996704, 55.8599088 ], [ 26.4993383, 55.8601869 ], [ 26.4988244, 55.860310599999984 ], [ 26.4981085, 55.8604051 ], [ 26.4974778, 55.860444499999986 ], [ 26.4968704, 55.8604257 ], [ 26.4958459, 55.8603864 ], [ 26.4942808, 55.860216 ], [ 26.4941623, 55.8647659 ], [ 26.4938753, 55.8647902 ], [ 26.4933797, 55.8648698 ], [ 26.492709, 55.8650852 ], [ 26.4924553, 55.8652181 ], [ 26.4923285, 55.8653642 ], [ 26.4922017, 55.8655589 ], [ 26.492155, 55.8657949 ], [ 26.4920582, 55.8715883 ], [ 26.4922017, 55.8721126 ], [ 26.4923152, 55.8723953 ], [ 26.4924487, 55.872636799999988 ], [ 26.4926122, 55.8728615 ], [ 26.492749, 55.873022499999983 ], [ 26.4930894, 55.8733445 ], [ 26.4926956, 55.874048499999986 ], [ 26.4925955, 55.874561499999984 ], [ 26.4923152, 55.8751568 ], [ 26.4912239, 55.8760573 ], [ 26.4910971, 55.8766339 ], [ 26.4913594, 55.8772373 ], [ 26.4910721, 55.8772321 ], [ 26.4906532, 55.8772517 ], [ 26.4891081, 55.8775569 ], [ 26.4888391, 55.8775218 ], [ 26.488361, 55.877432600000013 ], [ 26.4843682, 55.8744607 ], [ 26.4834959, 55.8738106 ], [ 26.4805954, 55.871649199999986 ], [ 26.476812, 55.86882880000001 ], [ 26.4767941, 55.8687641 ], [ 26.4763754, 55.8671549 ], [ 26.4761774, 55.866392 ], [ 26.4761603, 55.8663302 ], [ 26.4757856, 55.8648639 ], [ 26.4762458, 55.862287799999983 ], [ 26.4763058, 55.8619523 ], [ 26.4764049, 55.8613973 ], [ 26.4761041, 55.8613346 ], [ 26.4759089, 55.861294 ], [ 26.4758533, 55.8612824 ], [ 26.475504, 55.8612097 ], [ 26.4777148, 55.8597954 ], [ 26.479241, 55.858819 ], [ 26.4792235, 55.8587357 ], [ 26.4788243, 55.8584696 ], [ 26.4785956, 55.858273199999985 ], [ 26.4792185, 55.85778 ], [ 26.4790674, 55.8577138 ], [ 26.4801708, 55.8567447 ], [ 26.4804228, 55.8564373 ], [ 26.4806631, 55.856252499999982 ], [ 26.4815729, 55.85534650000001 ], [ 26.4821058, 55.8548157 ], [ 26.4825005, 55.854494 ], [ 26.482841, 55.854283700000011 ], [ 26.4829948, 55.8543393 ], [ 26.4838801, 55.8536548 ], [ 26.4843559, 55.8532499 ], [ 26.4846689, 55.8529124 ], [ 26.4847058, 55.852872499999982 ], [ 26.4847553, 55.852827499999989 ], [ 26.4854865, 55.852258 ], [ 26.4864458, 55.8515734 ], [ 26.4870462, 55.8512574 ], [ 26.4876466, 55.8509414 ], [ 26.4880198, 55.8507488 ], [ 26.4881668, 55.8506729 ] ] ] } },
{ "type": "Feature", "properties": { "NOSAUKUMS": "Ruģeļi" }, "geometry": { "type": "Polygon", "coordinates": [ [ [ 26.5734038, 55.8627569 ], [ 26.5746625, 55.862761 ], [ 26.5772188, 55.8625287 ], [ 26.5847676, 55.8626524 ], [ 26.586256, 55.8625859 ], [ 26.5894664, 55.8626317 ], [ 26.5908413, 55.8623452 ], [ 26.5917023, 55.8620306 ], [ 26.5921328, 55.8615661 ], [ 26.592847, 55.8612496 ], [ 26.5941944, 55.8611864 ], [ 26.5959423, 55.8612889 ], [ 26.5974157, 55.86145 ], [ 26.5991644, 55.8617291 ], [ 26.6002156, 55.8620755 ], [ 26.6017374, 55.8621308 ], [ 26.6026584, 55.8623939 ], [ 26.6039633, 55.8623508 ], [ 26.6088156, 55.862731 ], [ 26.6112184, 55.8630082 ], [ 26.6124332, 55.862989399999989 ], [ 26.6154233, 55.8638547 ], [ 26.6178328, 55.8649483 ], [ 26.6186738, 55.865394 ], [ 26.6193195, 55.866013399999986 ], [ 26.6206361, 55.8666355 ], [ 26.6211199, 55.8667367 ], [ 26.6217607, 55.866565800000011 ], [ 26.6225766, 55.8665625 ], [ 26.6258221, 55.868749599999987 ], [ 26.6270639, 55.868155499999979 ], [ 26.6283668, 55.8675112 ], [ 26.6286711, 55.8677547 ], [ 26.6289183, 55.8679385 ], [ 26.6293178, 55.8681882 ], [ 26.6297265, 55.8684579 ], [ 26.6301245, 55.8686315 ], [ 26.630599, 55.868956599999983 ], [ 26.6306945, 55.869139499999989 ], [ 26.6308772, 55.8693894 ], [ 26.6310369, 55.8695374 ], [ 26.6311678, 55.86979920000001 ], [ 26.6312096, 55.8698522 ], [ 26.6312428, 55.869896699999984 ], [ 26.6313803, 55.8700073 ], [ 26.6317249, 55.8700018 ], [ 26.6322514, 55.8706209 ], [ 26.6323405, 55.8710191 ], [ 26.6322917, 55.8710399 ], [ 26.6307249, 55.871706 ], [ 26.6293251, 55.872301 ], [ 26.6288088, 55.8725215 ], [ 26.6246779, 55.8742857 ], [ 26.6244874, 55.8743674 ], [ 26.6244374, 55.8743888 ], [ 26.6222672, 55.8753141 ], [ 26.6216761, 55.8755658 ], [ 26.6189612, 55.8767214 ], [ 26.61851, 55.8769134 ], [ 26.6183765, 55.876970300000011 ], [ 26.6158764, 55.8780337 ], [ 26.6155652, 55.878175499999983 ], [ 26.614618, 55.8785874 ], [ 26.6125425, 55.8794829 ], [ 26.6124937, 55.8795041 ], [ 26.6079549, 55.8814627 ], [ 26.6086347, 55.8825393 ], [ 26.6106538, 55.8851353 ], [ 26.6131277, 55.8887307 ], [ 26.6149378, 55.8910879 ], [ 26.6149376, 55.891274 ], [ 26.6149374, 55.891422 ], [ 26.614747, 55.8916105 ], [ 26.6142865, 55.8920666 ], [ 26.6139335, 55.8924472 ], [ 26.6136722, 55.8927202 ], [ 26.610551, 55.8899965 ], [ 26.6094897, 55.8893003 ], [ 26.6084619, 55.8887389 ], [ 26.6067332, 55.88805390000001 ], [ 26.6054183, 55.8876384 ], [ 26.602283, 55.886984299999988 ], [ 26.5952932, 55.8856395 ], [ 26.593451, 55.8852465 ], [ 26.5773062, 55.881194 ], [ 26.5778247, 55.880918 ], [ 26.5801242, 55.8799466 ], [ 26.5809362, 55.8793919 ], [ 26.5820953, 55.8790539 ], [ 26.58239, 55.8784405 ], [ 26.5822721, 55.8780327 ], [ 26.5824555, 55.877716799999988 ], [ 26.5823834, 55.8776286 ], [ 26.5818857, 55.8775258 ], [ 26.581853, 55.8771988 ], [ 26.5812636, 55.8772723 ], [ 26.5813029, 55.8774964 ], [ 26.5807921, 55.8776286 ], [ 26.58017, 55.8776139 ], [ 26.5788145, 55.877233699999984 ], [ 26.5784936, 55.8770519 ], [ 26.5774622, 55.8767231 ], [ 26.5773934, 55.876218 ], [ 26.5782316, 55.8757918 ], [ 26.5792598, 55.8756412 ], [ 26.5791354, 55.875092 ], [ 26.5793089, 55.8748679 ], [ 26.5797869, 55.8747687 ], [ 26.5800718, 55.8746787 ], [ 26.5810181, 55.8751471 ], [ 26.5814404, 55.8750975 ], [ 26.5814634, 55.8752555 ], [ 26.5815943, 55.875288500000011 ], [ 26.5832217, 55.8749193 ], [ 26.5833526, 55.8749248 ], [ 26.5837947, 55.8748385 ], [ 26.5839747, 55.8748569 ], [ 26.5865287, 55.874146 ], [ 26.5859721, 55.873391 ], [ 26.5848228, 55.87365 ], [ 26.5846623, 55.873391 ], [ 26.5852714, 55.8732202 ], [ 26.5856217, 55.8728202 ], [ 26.5855022, 55.8726769 ], [ 26.5861733, 55.8719796 ], [ 26.5859421, 55.8716976 ], [ 26.5773111, 55.8736771 ], [ 26.5751903, 55.871625 ], [ 26.5745275, 55.8709415 ], [ 26.5746399, 55.870853 ], [ 26.5733345, 55.8698288 ], [ 26.5718496, 55.8682895 ], [ 26.5726516, 55.867977899999985 ], [ 26.5719956, 55.867407400000012 ], [ 26.5731944, 55.866871699999983 ], [ 26.5729016, 55.8665695 ], [ 26.5726583, 55.8662616 ], [ 26.5753362, 55.8656251 ], [ 26.5753178, 55.865543199999983 ], [ 26.5775695, 55.8650103 ], [ 26.5771433, 55.8647354 ], [ 26.5766601, 55.8645339 ], [ 26.5759017, 55.864339899999983 ], [ 26.5753715, 55.8643145 ], [ 26.5739369, 55.8639643 ], [ 26.5735735, 55.8632001 ], [ 26.5734217, 55.8630522 ], [ 26.5734038, 55.8627569 ] ] ] } },
{ "type": "Feature", "properties": { "NOSAUKUMS": "Vecā Forštate" }, "geometry": { "type": "Polygon", "coordinates": [ [ [ 26.5004931, 55.9052948 ], [ 26.5007305, 55.905062 ], [ 26.5008855, 55.905041 ], [ 26.5028572, 55.9053007 ], [ 26.5032602, 55.9052678 ], [ 26.5037489, 55.9050474 ], [ 26.5047295, 55.9044501 ], [ 26.5055795, 55.9041209 ], [ 26.5069337, 55.9037943 ], [ 26.5081819, 55.9035282 ], [ 26.5083923, 55.9034257 ], [ 26.5087382, 55.9028834 ], [ 26.5087741, 55.9020748 ], [ 26.5086827, 55.9015315 ], [ 26.5090629, 55.9010407 ], [ 26.5094781, 55.9006241 ], [ 26.5097824, 55.9004805 ], [ 26.5102262, 55.9004311 ], [ 26.5107402, 55.9004951 ], [ 26.5110273, 55.9006259 ], [ 26.5110844, 55.9008793 ], [ 26.5108854, 55.9013284 ], [ 26.511117, 55.9018022 ], [ 26.5117925, 55.9017483 ], [ 26.5121776, 55.9014103 ], [ 26.512158, 55.9010668 ], [ 26.5124549, 55.9007137 ], [ 26.5130717, 55.9003972 ], [ 26.5137602, 55.9002582 ], [ 26.514155, 55.9002875 ], [ 26.5144063, 55.9004119 ], [ 26.514824, 55.9003479 ], [ 26.5150459, 55.9002308 ], [ 26.5150524, 55.8999747 ], [ 26.5152939, 55.899793499999987 ], [ 26.5152922, 55.899703 ], [ 26.5150442, 55.8995813 ], [ 26.5140702, 55.899595599999984 ], [ 26.5138042, 55.8995548 ], [ 26.5135823, 55.899456899999983 ], [ 26.5134322, 55.8992977 ], [ 26.5132642, 55.8988422 ], [ 26.5134176, 55.8983519 ], [ 26.5132675, 55.8978762 ], [ 26.5130717, 55.8976475 ], [ 26.5120878, 55.8968718 ], [ 26.5119198, 55.8965141 ], [ 26.5121254, 55.8962241 ], [ 26.5129868, 55.8963147 ], [ 26.5133254, 55.8962749 ], [ 26.513628, 55.8961317 ], [ 26.5139291, 55.8961656 ], [ 26.514049, 55.8963284 ], [ 26.5138711, 55.8964857 ], [ 26.5138891, 55.896665 ], [ 26.514, 55.8968745 ], [ 26.5142187, 55.8970072 ], [ 26.5147554, 55.89709770000001 ], [ 26.515116, 55.8971014 ], [ 26.5155908, 55.89702 ], [ 26.5161782, 55.8971645 ], [ 26.5163625, 55.8973392 ], [ 26.516591, 55.8973996 ], [ 26.5173333, 55.8973118 ], [ 26.5176531, 55.8973447 ], [ 26.5183628, 55.8976164 ], [ 26.5187055, 55.8976082 ], [ 26.5189062, 55.897503899999982 ], [ 26.5193353, 55.8970593 ], [ 26.5193385, 55.8968956 ], [ 26.5192341, 55.8966568 ], [ 26.5193238, 55.8965974 ], [ 26.5193108, 55.896524199999988 ], [ 26.5189437, 55.8965534 ], [ 26.5183922, 55.8968457 ], [ 26.5180936, 55.8969239 ], [ 26.5177706, 55.8969377 ], [ 26.5172844, 55.8968389 ], [ 26.5170364, 55.89645920000001 ], [ 26.5170331, 55.8963641 ], [ 26.5167753, 55.89636320000001 ], [ 26.5162206, 55.896215 ], [ 26.5154081, 55.8961399 ], [ 26.5148762, 55.896204 ], [ 26.5145009, 55.8960009 ], [ 26.5150524, 55.8960046 ], [ 26.5155892, 55.896140900000013 ], [ 26.5169026, 55.8961985 ], [ 26.5175993, 55.896118 ], [ 26.5179892, 55.8959881 ], [ 26.5183384, 55.895795099999987 ], [ 26.5185668, 55.895731 ], [ 26.5188703, 55.8957246 ], [ 26.5190628, 55.8957585 ], [ 26.5191085, 55.8958079 ], [ 26.5201054, 55.8960905 ], [ 26.5202228, 55.8963952 ], [ 26.5203941, 55.8965452 ], [ 26.5205345, 55.8965388 ], [ 26.5212426, 55.8951707 ], [ 26.5218038, 55.8939059 ], [ 26.5223227, 55.892438399999989 ], [ 26.5225916, 55.892373 ], [ 26.5248734, 55.8931242 ], [ 26.525532, 55.8934699 ], [ 26.5264474, 55.8941335 ], [ 26.528063, 55.8953926 ], [ 26.5290959, 55.8961552 ], [ 26.5267803, 55.8978885 ], [ 26.5266302, 55.8981611 ], [ 26.526353, 55.8982523 ], [ 26.5254591, 55.8988588 ], [ 26.524314, 55.8992968 ], [ 26.5236302, 55.899405 ], [ 26.5233298, 55.899187499999982 ], [ 26.5230098, 55.8990663 ], [ 26.5217691, 55.9000385 ], [ 26.5211558, 55.9005156 ], [ 26.5209306, 55.9005758 ], [ 26.5203013, 55.9010448 ], [ 26.5202637, 55.901261299999987 ], [ 26.5211237, 55.9059357 ], [ 26.5217762, 55.90603 ], [ 26.5220497, 55.9064699 ], [ 26.5220732, 55.906757399999982 ], [ 26.51881, 55.9069459 ], [ 26.5173253, 55.9077318 ], [ 26.5170505, 55.9080528 ], [ 26.5172815, 55.9089504 ], [ 26.5169449, 55.908942399999987 ], [ 26.5158929, 55.9089555 ], [ 26.5150353, 55.908993 ], [ 26.5148732, 55.9090972 ], [ 26.5143855, 55.9094108 ], [ 26.5138951, 55.90972330000001 ], [ 26.5136793, 55.9098624 ], [ 26.5134341, 55.9100454 ], [ 26.5133008, 55.9101276 ], [ 26.5129803, 55.9103115 ], [ 26.5127424, 55.910464 ], [ 26.5124692, 55.9106708 ], [ 26.5124012, 55.9107151 ], [ 26.512155, 55.9108756 ], [ 26.5116652, 55.9112188 ], [ 26.5115641, 55.9095982 ], [ 26.5108854, 55.9090906 ], [ 26.5106627, 55.9084523 ], [ 26.5105003, 55.9082451 ], [ 26.508363, 55.9068409 ], [ 26.5080318, 55.9067265 ], [ 26.5074738, 55.9065939 ], [ 26.5074101, 55.9066561 ], [ 26.5074509, 55.9068354 ], [ 26.5073188, 55.906925 ], [ 26.5071784, 55.9069332 ], [ 26.5070887, 55.906903 ], [ 26.507061, 55.9068454 ], [ 26.5070153, 55.9068034 ], [ 26.5069288, 55.9068152 ], [ 26.5068554, 55.9068692 ], [ 26.5067151, 55.9069744 ], [ 26.5066123, 55.9070146 ], [ 26.5064818, 55.9070503 ], [ 26.5063888, 55.9070366 ], [ 26.5062272, 55.907063099999981 ], [ 26.5061359, 55.9071171 ], [ 26.5058862, 55.9071481 ], [ 26.5058014, 55.9072085 ], [ 26.5057182, 55.9072003 ], [ 26.505431, 55.9071262 ], [ 26.5053152, 55.907043 ], [ 26.5052777, 55.9069817 ], [ 26.5050395, 55.9069899 ], [ 26.5047458, 55.9070805 ], [ 26.5045533, 55.907067699999985 ], [ 26.5044961, 55.9070366 ], [ 26.5044831, 55.9069744 ], [ 26.5044325, 55.9069076 ], [ 26.5043101, 55.9068491 ], [ 26.5039006, 55.9067366 ], [ 26.5038354, 55.9067686 ], [ 26.5037456, 55.9068034 ], [ 26.5036102, 55.9068134 ], [ 26.5034748, 55.9068098 ], [ 26.5033116, 55.9067329 ], [ 26.5032741, 55.9066707 ], [ 26.5032447, 55.9066095 ], [ 26.5027667, 55.9064375 ], [ 26.5020586, 55.9063671 ], [ 26.5019085, 55.906281099999987 ], [ 26.5013799, 55.9061787 ], [ 26.500817, 55.906131199999983 ], [ 26.500644, 55.9060552 ], [ 26.5005216, 55.9059482 ], [ 26.5003968, 55.9056103 ], [ 26.5004751, 55.9055065 ], [ 26.500582, 55.9054438 ], [ 26.5006081, 55.905337299999985 ], [ 26.5004931, 55.9052948 ] ] ] } },
{ "type": "Feature", "properties": { "NOSAUKUMS": "Vecstropi" }, "geometry": { "type": "Polygon", "coordinates": [ [ [ 26.5707073, 55.8850126 ], [ 26.5805811, 55.8881501 ], [ 26.5831475, 55.8887915 ], [ 26.5851707, 55.8893661 ], [ 26.5896787, 55.89066170000001 ], [ 26.5894291, 55.890992 ], [ 26.5890946, 55.8909078 ], [ 26.5889673, 55.8910835 ], [ 26.5898125, 55.8913085 ], [ 26.5895253, 55.8916416 ], [ 26.5896836, 55.8920121 ], [ 26.5897537, 55.8931484 ], [ 26.5917655, 55.8935656 ], [ 26.5908077, 55.8947558 ], [ 26.5899675, 55.8965919 ], [ 26.5900996, 55.896719 ], [ 26.5903656, 55.8967446 ], [ 26.5904406, 55.8966715 ], [ 26.5915566, 55.8967099 ], [ 26.5932894, 55.8968782 ], [ 26.5947904, 55.8971444 ], [ 26.5956633, 55.897100499999986 ], [ 26.5958966, 55.897823199999984 ], [ 26.5957954, 55.8984818 ], [ 26.5969506, 55.8978598 ], [ 26.5981351, 55.8977134 ], [ 26.5992805, 55.8972981 ], [ 26.6003214, 55.8971353 ], [ 26.601594, 55.8971535 ], [ 26.6030331, 55.8974426 ], [ 26.6037771, 55.8976548 ], [ 26.6052781, 55.8984278 ], [ 26.6055147, 55.8986812 ], [ 26.6056762, 55.8991276 ], [ 26.605972, 55.8996692 ], [ 26.6074958, 55.8983851 ], [ 26.6076849, 55.8980255 ], [ 26.60779, 55.8980677 ], [ 26.6079708, 55.8979906 ], [ 26.6087838, 55.8976439 ], [ 26.6088066, 55.8976307 ], [ 26.6088588, 55.8976005 ], [ 26.609185, 55.8974116 ], [ 26.6088972, 55.8970701 ], [ 26.6090227, 55.8968161 ], [ 26.6091523, 55.896553699999984 ], [ 26.6092223, 55.8964996 ], [ 26.6092976, 55.8964415 ], [ 26.6095843, 55.896220099999987 ], [ 26.6102873, 55.8956538 ], [ 26.6105069, 55.8954769 ], [ 26.6108044, 55.8952253 ], [ 26.610931, 55.8951185 ], [ 26.6109961, 55.8950635 ], [ 26.6110629, 55.8949519 ], [ 26.6113213, 55.8947893 ], [ 26.6114408, 55.8946884 ], [ 26.6119237, 55.894281 ], [ 26.6124586, 55.8938035 ], [ 26.6125361, 55.893734399999985 ], [ 26.6135666, 55.8928133 ], [ 26.6136722, 55.8927202 ], [ 26.610551, 55.8899965 ], [ 26.6094897, 55.8893003 ], [ 26.6084619, 55.8887389 ], [ 26.6067332, 55.88805390000001 ], [ 26.6054183, 55.8876384 ], [ 26.602283, 55.886984299999988 ], [ 26.5952932, 55.8856395 ], [ 26.593451, 55.8852465 ], [ 26.5773062, 55.881194 ], [ 26.5746754, 55.8825943 ], [ 26.5763903, 55.8830459 ], [ 26.5764504, 55.8831415 ], [ 26.5759664, 55.8837756 ], [ 26.5758154, 55.8838011 ], [ 26.5739167, 55.8833155 ], [ 26.5736503, 55.883321 ], [ 26.5733433, 55.883401099999986 ], [ 26.5704872, 55.8849375 ], [ 26.5707073, 55.8850126 ] ] ] } },
{ "type": "Feature", "properties": { "NOSAUKUMS": "Viduspoguļanka" }, "geometry": { "type": "Polygon", "coordinates": [ [ [ 26.4844605, 55.9154322 ], [ 26.4849924, 55.9148561 ], [ 26.4851686, 55.9148708 ], [ 26.4852469, 55.914655 ], [ 26.485012, 55.914530599999985 ], [ 26.4858408, 55.9128847 ], [ 26.4860888, 55.9128811 ], [ 26.4866696, 55.9115423 ], [ 26.4866044, 55.9113594 ], [ 26.4871983, 55.9098524 ], [ 26.4872113, 55.9095817 ], [ 26.4875572, 55.9084331 ], [ 26.4876812, 55.908177 ], [ 26.4890909, 55.9049065 ], [ 26.489502, 55.9037358 ], [ 26.4899001, 55.9029273 ], [ 26.490915, 55.9017016 ], [ 26.4922626, 55.9005088 ], [ 26.4929805, 55.9000112 ], [ 26.4932001, 55.9001069 ], [ 26.4935401, 55.899878 ], [ 26.493904, 55.900084399999976 ], [ 26.4940655, 55.9001988 ], [ 26.4947981, 55.9010028 ], [ 26.4976077, 55.9019888 ], [ 26.4972618, 55.9021553 ], [ 26.4970399, 55.9024004 ], [ 26.4969648, 55.902625399999984 ], [ 26.4971329, 55.9030853 ], [ 26.4974478, 55.9034459 ], [ 26.4974282, 55.904302 ], [ 26.4972552, 55.9046262 ], [ 26.4968278, 55.9050785 ], [ 26.4963677, 55.9053702 ], [ 26.4962633, 55.905639099999988 ], [ 26.4964851, 55.9059135 ], [ 26.496893, 55.9065162 ], [ 26.496809, 55.9067224 ], [ 26.4968159, 55.9069322 ], [ 26.4970399, 55.9072396 ], [ 26.497048, 55.9076484 ], [ 26.4980678, 55.9078862 ], [ 26.4991103, 55.907553299999989 ], [ 26.4985899, 55.9070585 ], [ 26.4987286, 55.9068253 ], [ 26.4996585, 55.906200699999985 ], [ 26.4999979, 55.9058476 ], [ 26.5000077, 55.9053373 ], [ 26.5003732, 55.9052632 ], [ 26.5004931, 55.9052948 ], [ 26.5006081, 55.905337299999985 ], [ 26.500582, 55.9054438 ], [ 26.5004751, 55.9055065 ], [ 26.5003968, 55.9056103 ], [ 26.5005216, 55.9059482 ], [ 26.500644, 55.9060552 ], [ 26.500817, 55.906131199999983 ], [ 26.5013799, 55.9061787 ], [ 26.5019085, 55.906281099999987 ], [ 26.5020586, 55.9063671 ], [ 26.5027667, 55.9064375 ], [ 26.5032447, 55.9066095 ], [ 26.5032741, 55.9066707 ], [ 26.5033116, 55.9067329 ], [ 26.5034748, 55.9068098 ], [ 26.5036102, 55.9068134 ], [ 26.5037456, 55.9068034 ], [ 26.5038354, 55.9067686 ], [ 26.5039006, 55.9067366 ], [ 26.5043101, 55.9068491 ], [ 26.5044325, 55.9069076 ], [ 26.5044831, 55.9069744 ], [ 26.5044961, 55.9070366 ], [ 26.5045533, 55.907067699999985 ], [ 26.5047458, 55.9070805 ], [ 26.5050395, 55.9069899 ], [ 26.5052777, 55.9069817 ], [ 26.5053152, 55.907043 ], [ 26.505431, 55.9071262 ], [ 26.5057182, 55.9072003 ], [ 26.5058014, 55.9072085 ], [ 26.5058862, 55.9071481 ], [ 26.5061359, 55.9071171 ], [ 26.5062272, 55.907063099999981 ], [ 26.5063888, 55.9070366 ], [ 26.5064818, 55.9070503 ], [ 26.5066123, 55.9070146 ], [ 26.5067151, 55.9069744 ], [ 26.5068554, 55.9068692 ], [ 26.5069288, 55.9068152 ], [ 26.5070153, 55.9068034 ], [ 26.507061, 55.9068454 ], [ 26.5070887, 55.906903 ], [ 26.5071784, 55.9069332 ], [ 26.5073188, 55.906925 ], [ 26.5074509, 55.9068354 ], [ 26.5074101, 55.9066561 ], [ 26.5074738, 55.9065939 ], [ 26.5080318, 55.9067265 ], [ 26.508363, 55.9068409 ], [ 26.5105003, 55.9082451 ], [ 26.5106627, 55.9084523 ], [ 26.5108854, 55.9090906 ], [ 26.5115641, 55.9095982 ], [ 26.5116652, 55.9112188 ], [ 26.5101584, 55.9122746 ], [ 26.5088068, 55.9132174 ], [ 26.5086084, 55.9132708 ], [ 26.5075781, 55.9135481 ], [ 26.5066696, 55.9137927 ], [ 26.5058123, 55.9140387 ], [ 26.5052358, 55.9142004 ], [ 26.5020621, 55.9150909 ], [ 26.5004007, 55.9155523 ], [ 26.499566, 55.9157841 ], [ 26.4988358, 55.9159868 ], [ 26.4979825, 55.9161993 ], [ 26.4968264, 55.9160399 ], [ 26.495604, 55.9158714 ], [ 26.4937647, 55.9156178 ], [ 26.4928151, 55.9153758 ], [ 26.4919946, 55.9151668 ], [ 26.4910412, 55.914917799999984 ], [ 26.4901214, 55.914904 ], [ 26.4882156, 55.9147364 ], [ 26.4879596, 55.9152327 ], [ 26.4877799, 55.9155815 ], [ 26.487762, 55.9156161 ], [ 26.4871546, 55.9167948 ], [ 26.4863868, 55.9168767 ], [ 26.4856012, 55.9169605 ], [ 26.4854457, 55.916977100000011 ], [ 26.4850807, 55.9170161 ], [ 26.485694, 55.9155584 ], [ 26.4844605, 55.9154322 ] ] ] } },
{ "type": "Feature", "properties": { "NOSAUKUMS": "Vizbuļi" }, "geometry": { "type": "Polygon", "coordinates": [ [ [ 26.4628782, 55.9030434 ], [ 26.4628846, 55.9032474 ], [ 26.4630054, 55.9035657 ], [ 26.4632893, 55.9039517 ], [ 26.4635601, 55.9042699 ], [ 26.4637526, 55.9043504 ], [ 26.4640365, 55.9045992 ], [ 26.4640095, 55.9047934 ], [ 26.4680265, 55.9092657 ], [ 26.4691335, 55.9101853 ], [ 26.4698759, 55.9105821 ], [ 26.4706982, 55.9109141 ], [ 26.4710229, 55.9110357 ], [ 26.471527, 55.9111866 ], [ 26.4784857, 55.9130566 ], [ 26.4799541, 55.9135211 ], [ 26.4805871, 55.9137662 ], [ 26.4838307, 55.915434 ], [ 26.4844605, 55.9154322 ], [ 26.4849924, 55.9148561 ], [ 26.4851686, 55.9148708 ], [ 26.4852469, 55.914655 ], [ 26.485012, 55.914530599999985 ], [ 26.4858408, 55.9128847 ], [ 26.4860888, 55.9128811 ], [ 26.4866696, 55.9115423 ], [ 26.4866044, 55.9113594 ], [ 26.4871983, 55.9098524 ], [ 26.4872113, 55.9095817 ], [ 26.4875572, 55.9084331 ], [ 26.4876812, 55.908177 ], [ 26.4890909, 55.9049065 ], [ 26.489502, 55.9037358 ], [ 26.4899001, 55.9029273 ], [ 26.490915, 55.9017016 ], [ 26.4922626, 55.9005088 ], [ 26.4929805, 55.9000112 ], [ 26.4932001, 55.9001069 ], [ 26.4935401, 55.899878 ], [ 26.4922953, 55.898304 ], [ 26.4919816, 55.8985196 ], [ 26.4911573, 55.8995393 ], [ 26.4908803, 55.9000781 ], [ 26.4888713, 55.9002222 ], [ 26.4836987, 55.9014495 ], [ 26.4778752, 55.9025983 ], [ 26.4772178, 55.90321 ], [ 26.4748851, 55.903707599999983 ], [ 26.474201, 55.9034682 ], [ 26.4728928, 55.9033597 ], [ 26.4720618, 55.9031314 ], [ 26.4699627, 55.9021792 ], [ 26.4684743, 55.9013476 ], [ 26.467917, 55.90078350000001 ], [ 26.467554, 55.9009598 ], [ 26.467124, 55.901478299999987 ], [ 26.4665233, 55.9018686 ], [ 26.4667315, 55.9020447 ], [ 26.4667076, 55.902176699999984 ], [ 26.4660693, 55.9024426 ], [ 26.466042, 55.9027449 ], [ 26.4657144, 55.902863600000011 ], [ 26.464711, 55.9029764 ], [ 26.4628782, 55.9030434 ] ] ] } }
]
}
